{"type":"FeatureCollection","name":"C04_Puertos_reg","crs":{"type":"name","properties":{"name":"urn:ogc:def:crs:OGC:1.3:CRS84"}},"xy_coordinate_resolution":1e-06,"features":[{"type":"Feature","properties":{"Nombre":"Coatzacoalcos","Vocación":"Petróleo","denominacion_oficial":"C04_Puertos_reg","modulo_asignado":"Mapa Base","instrumento_vigencia":"N/A","fecha_actualizacion":"2026-07-29","fuente_custodio":"INEGI_2022","responsable_institucional":"INEGI","proyeccion_original":"EPSG:6372","proyeccion_actual":"EPSG:4326","cobertura_territorial":"Regional","restricciones_uso":"Público"},"geometry":{"type":"Point","coordinates":[-94.401285,18.119881]}},{"type":"Feature","properties":{"Nombre":"Seybaplaya","Vocación":"Comercio","denominacion_oficial":"C04_Puertos_reg","modulo_asignado":"Mapa Base","instrumento_vigencia":"N/A","fecha_actualizacion":"2026-07-29","fuente_custodio":"INEGI_2022","responsable_institucional":"INEGI","proyeccion_original":"EPSG:6372","proyeccion_actual":"EPSG:4326","cobertura_territorial":"Estatal","restricciones_uso":"Público"},"geometry":{"type":"Point","coordinates":[-90.704275,19.650621]}},{"type":"Feature","properties":{"Nombre":"Progreso","Vocación":"Turismo","denominacion_oficial":"C04_Puertos_reg","modulo_asignado":"Mapa Base","instrumento_vigencia":"N/A","fecha_actualizacion":"2026-07-29","fuente_custodio":"INEGI_2022","responsable_institucional":"INEGI","proyeccion_original":"EPSG:6372","proyeccion_actual":"EPSG:4326","cobertura_territorial":"Regional","restricciones_uso":"Público"},"geometry":{"type":"Point","coordinates":[-89.699056,21.271573]}}]}