{"type":"FeatureCollection","name":"C04_Aeropuertos_2012","crs":{"type":"name","properties":{"name":"urn:ogc:def:crs:OGC:1.3:CRS84"}},"xy_coordinate_resolution":1e-06,"features":[{"type":"Feature","properties":{"gid":8,"tipo":"Aeropuerto 1","clase":"Aerï¿½dromos y Aeropuertos","tam_pista":"SD","nom_aerop":"Cancï¿½n","eleva_pies":20,"l":"Iluminaciï¿½n","h":"Pista pavimentada, transitable todo el tiempo","log_pista":115,"pista_mts":0.0,"num_pistas":1,"denominacion_oficial":"C04_Aeropuertos_2012","modulo_asignado":"Mapa Base","instrumento_vigencia":"","fecha_actualizacion":"2026-07-29","fuente_custodio":"","responsable_institucional":"","proyeccion_original":"EPSG:6372","proyeccion_actual":"EPSG:4326","cobertura_territorial":"","restricciones_uso":""},"geometry":{"type":"Point","coordinates":[-86.851883,21.028479]}},{"type":"Feature","properties":{"gid":14,"tipo":"Aeropuerto 1","clase":"Aerï¿½dromos y Aeropuertos","tam_pista":"SD","nom_aerop":"Chichï¿½n Itza","eleva_pies":102,"l":"Iluminaciï¿½n","h":"Pista pavimentada, transitable todo el tiempo","log_pista":92,"pista_mts":0.0,"num_pistas":1,"denominacion_oficial":"C04_Aeropuertos_2012","modulo_asignado":"Mapa Base","instrumento_vigencia":"","fecha_actualizacion":"2026-07-29","fuente_custodio":"","responsable_institucional":"","proyeccion_original":"EPSG:6372","proyeccion_actual":"EPSG:4326","cobertura_territorial":"","restricciones_uso":""},"geometry":{"type":"Point","coordinates":[-88.443289,20.637316]}},{"type":"Feature","properties":{"gid":16,"tipo":"Civil terrestre (Mayor)","clase":"Aerï¿½dromos y Aeropuertos","tam_pista":"Pista mayor de 1500 pies","nom_aerop":"Tulum","eleva_pies":7,"l":"SD","h":"Pista pavimentada, transitable todo el tiempo","log_pista":61,"pista_mts":457.2,"num_pistas":0,"denominacion_oficial":"C04_Aeropuertos_2012","modulo_asignado":"Mapa Base","instrumento_vigencia":"","fecha_actualizacion":"2026-07-29","fuente_custodio":"","responsable_institucional":"","proyeccion_original":"EPSG:6372","proyeccion_actual":"EPSG:4326","cobertura_territorial":"","restricciones_uso":""},"geometry":{"type":"Point","coordinates":[-87.427712,20.22608]}},{"type":"Feature","properties":{"gid":18,"tipo":"Civil terrestre (Mayor)","clase":"Aerï¿½dromos y Aeropuertos","tam_pista":"Pista mayor de 1500 pies","nom_aerop":"Felipe Carrillo Puerto","eleva_pies":66,"l":"SD","h":"Pista pavimentada, transitable todo el tiempo","log_pista":30,"pista_mts":457.2,"num_pistas":0,"denominacion_oficial":"C04_Aeropuertos_2012","modulo_asignado":"Mapa Base","instrumento_vigencia":"","fecha_actualizacion":"2026-07-29","fuente_custodio":"","responsable_institucional":"","proyeccion_original":"EPSG:6372","proyeccion_actual":"EPSG:4326","cobertura_territorial":"","restricciones_uso":""},"geometry":{"type":"Point","coordinates":[-88.061456,19.607937]}},{"type":"Feature","properties":{"gid":19,"tipo":"Civil terrestre (Mayor)","clase":"Aerï¿½dromos y Aeropuertos","tam_pista":"Pista mayor de 1500 pies","nom_aerop":"Pulticub","eleva_pies":7,"l":"SD","h":"Pista pavimentada, transitable todo el tiempo","log_pista":33,"pista_mts":457.2,"num_pistas":0,"denominacion_oficial":"C04_Aeropuertos_2012","modulo_asignado":"Mapa Base","instrumento_vigencia":"","fecha_actualizacion":"2026-07-29","fuente_custodio":"","responsable_institucional":"","proyeccion_original":"EPSG:6372","proyeccion_actual":"EPSG:4326","cobertura_territorial":"","restricciones_uso":""},"geometry":{"type":"Point","coordinates":[-87.54892,19.081124]}},{"type":"Feature","properties":{"gid":24,"tipo":"Civil terrestre (Mayor)","clase":"Aerï¿½dromos y Aeropuertos","tam_pista":"Pista mayor de 1500 pies","nom_aerop":"La Joya","eleva_pies":10,"l":"SD","h":"SD","log_pista":33,"pista_mts":457.2,"num_pistas":0,"denominacion_oficial":"C04_Aeropuertos_2012","modulo_asignado":"Mapa Base","instrumento_vigencia":"","fecha_actualizacion":"2026-07-29","fuente_custodio":"","responsable_institucional":"","proyeccion_original":"EPSG:6372","proyeccion_actual":"EPSG:4326","cobertura_territorial":"","restricciones_uso":""},"geometry":{"type":"Point","coordinates":[-90.652689,19.468025]}},{"type":"Feature","properties":{"gid":25,"tipo":"Aeropuerto 1","clase":"Aerï¿½dromos y Aeropuertos","tam_pista":"SD","nom_aerop":"Ing. Alberto Acuï¿½a Ongay","eleva_pies":34,"l":"Iluminaciï¿½n","h":"Pista pavimentada, transitable todo el tiempo","log_pista":82,"pista_mts":0.0,"num_pistas":1,"denominacion_oficial":"C04_Aeropuertos_2012","modulo_asignado":"Mapa Base","instrumento_vigencia":"","fecha_actualizacion":"2026-07-29","fuente_custodio":"","responsable_institucional":"","proyeccion_original":"EPSG:6372","proyeccion_actual":"EPSG:4326","cobertura_territorial":"","restricciones_uso":""},"geometry":{"type":"Point","coordinates":[-90.493516,19.832546]}},{"type":"Feature","properties":{"gid":26,"tipo":"Aeropuerto 1","clase":"Aerï¿½dromos y Aeropuertos","tam_pista":"SD","nom_aerop":"C.P.A. Carlos Rovirosa","eleva_pies":46,"l":"Iluminaciï¿½n","h":"Pista pavimentada, transitable todo el tiempo","log_pista":72,"pista_mts":0.0,"num_pistas":1,"denominacion_oficial":"C04_Aeropuertos_2012","modulo_asignado":"Mapa Base","instrumento_vigencia":"","fecha_actualizacion":"2026-07-29","fuente_custodio":"","responsable_institucional":"","proyeccion_original":"EPSG:6372","proyeccion_actual":"EPSG:4326","cobertura_territorial":"","restricciones_uso":""},"geometry":{"type":"Point","coordinates":[-92.815248,17.998394]}},{"type":"Feature","properties":{"gid":27,"tipo":"Civil terrestre (Mayor)","clase":"Aerï¿½dromos y Aeropuertos","tam_pista":"Pista mayor de 1500 pies","nom_aerop":"Palizada","eleva_pies":20,"l":"SD","h":"Pista pavimentada, transitable todo el tiempo","log_pista":36,"pista_mts":457.2,"num_pistas":0,"denominacion_oficial":"C04_Aeropuertos_2012","modulo_asignado":"Mapa Base","instrumento_vigencia":"","fecha_actualizacion":"2026-07-29","fuente_custodio":"","responsable_institucional":"","proyeccion_original":"EPSG:6372","proyeccion_actual":"EPSG:4326","cobertura_territorial":"","restricciones_uso":""},"geometry":{"type":"Point","coordinates":[-92.084515,18.262889]}},{"type":"Feature","properties":{"gid":28,"tipo":"Aeropuerto 1","clase":"Aerï¿½dromos y Aeropuertos","tam_pista":"SD","nom_aerop":"Ciudad del Carmen","eleva_pies":10,"l":"Iluminaciï¿½n","h":"Pista pavimentada, transitable todo el tiempo","log_pista":72,"pista_mts":0.0,"num_pistas":1,"denominacion_oficial":"C04_Aeropuertos_2012","modulo_asignado":"Mapa Base","instrumento_vigencia":"","fecha_actualizacion":"2026-07-29","fuente_custodio":"","responsable_institucional":"","proyeccion_original":"EPSG:6372","proyeccion_actual":"EPSG:4326","cobertura_territorial":"","restricciones_uso":""},"geometry":{"type":"Point","coordinates":[-91.803263,18.648362]}},{"type":"Feature","properties":{"gid":29,"tipo":"Civil terrestre (Mayor)","clase":"Aerï¿½dromos y Aeropuertos","tam_pista":"Pista mayor de 1500 pies","nom_aerop":"Chivoja","eleva_pies":66,"l":"SD","h":"SD","log_pista":16,"pista_mts":457.2,"num_pistas":0,"denominacion_oficial":"C04_Aeropuertos_2012","modulo_asignado":"Mapa Base","instrumento_vigencia":"","fecha_actualizacion":"2026-07-29","fuente_custodio":"","responsable_institucional":"","proyeccion_original":"EPSG:6372","proyeccion_actual":"EPSG:4326","cobertura_territorial":"","restricciones_uso":""},"geometry":{"type":"Point","coordinates":[-91.063727,18.715463]}},{"type":"Feature","properties":{"gid":30,"tipo":"Civil terrestre (Mayor)","clase":"Aerï¿½dromos y Aeropuertos","tam_pista":"Pista mayor de 1500 pies","nom_aerop":"Candelaria","eleva_pies":184,"l":"SD","h":"Pista pavimentada, transitable todo el tiempo","log_pista":36,"pista_mts":457.2,"num_pistas":0,"denominacion_oficial":"C04_Aeropuertos_2012","modulo_asignado":"Mapa Base","instrumento_vigencia":"","fecha_actualizacion":"2026-07-29","fuente_custodio":"","responsable_institucional":"","proyeccion_original":"EPSG:6372","proyeccion_actual":"EPSG:4326","cobertura_territorial":"","restricciones_uso":""},"geometry":{"type":"Point","coordinates":[-91.016613,18.177229]}},{"type":"Feature","properties":{"gid":38,"tipo":"Civil terrestre (Mayor)","clase":"Aerï¿½dromos y Aeropuertos","tam_pista":"Pista mayor de 1500 pies","nom_aerop":"Escï¿½rcega","eleva_pies":302,"l":"SD","h":"Pista pavimentada, transitable todo el tiempo","log_pista":36,"pista_mts":457.2,"num_pistas":0,"denominacion_oficial":"C04_Aeropuertos_2012","modulo_asignado":"Mapa Base","instrumento_vigencia":"","fecha_actualizacion":"2026-07-29","fuente_custodio":"","responsable_institucional":"","proyeccion_original":"EPSG:6372","proyeccion_actual":"EPSG:4326","cobertura_territorial":"","restricciones_uso":""},"geometry":{"type":"Point","coordinates":[-90.713946,18.598393]}},{"type":"Feature","properties":{"gid":39,"tipo":"Civil terrestre (Mayor)","clase":"Aerï¿½dromos y Aeropuertos","tam_pista":"Pista mayor de 1500 pies","nom_aerop":"Xpujil","eleva_pies":866,"l":"SD","h":"Pista pavimentada, transitable todo el tiempo","log_pista":37,"pista_mts":457.2,"num_pistas":0,"denominacion_oficial":"C04_Aeropuertos_2012","modulo_asignado":"Mapa Base","instrumento_vigencia":"","fecha_actualizacion":"2026-07-29","fuente_custodio":"","responsable_institucional":"","proyeccion_original":"EPSG:6372","proyeccion_actual":"EPSG:4326","cobertura_territorial":"","restricciones_uso":""},"geometry":{"type":"Point","coordinates":[-89.393345,18.50845]}},{"type":"Feature","properties":{"gid":40,"tipo":"Civil terrestre (Mayor)","clase":"Aerï¿½dromos y Aeropuertos","tam_pista":"Pista mayor de 1500 pies","nom_aerop":"Kohunlinch","eleva_pies":295,"l":"SD","h":"Pista pavimentada, transitable todo el tiempo","log_pista":33,"pista_mts":457.2,"num_pistas":0,"denominacion_oficial":"C04_Aeropuertos_2012","modulo_asignado":"Mapa Base","instrumento_vigencia":"","fecha_actualizacion":"2026-07-29","fuente_custodio":"","responsable_institucional":"","proyeccion_original":"EPSG:6372","proyeccion_actual":"EPSG:4326","cobertura_territorial":"","restricciones_uso":""},"geometry":{"type":"Point","coordinates":[-88.810853,18.448487]}},{"type":"Feature","properties":{"gid":41,"tipo":"Aeropuerto 1","clase":"Aerï¿½dromos y Aeropuertos","tam_pista":"SD","nom_aerop":"Chetumal","eleva_pies":39,"l":"Iluminaciï¿½n","h":"Pista pavimentada, transitable todo el tiempo","log_pista":72,"pista_mts":0.0,"num_pistas":1,"denominacion_oficial":"C04_Aeropuertos_2012","modulo_asignado":"Mapa Base","instrumento_vigencia":"","fecha_actualizacion":"2026-07-29","fuente_custodio":"","responsable_institucional":"","proyeccion_original":"EPSG:6372","proyeccion_actual":"EPSG:4326","cobertura_territorial":"","restricciones_uso":""},"geometry":{"type":"Point","coordinates":[-88.322587,18.50845]}},{"type":"Feature","properties":{"gid":42,"tipo":"Civil terrestre (Mayor)","clase":"Aerï¿½dromos y Aeropuertos","tam_pista":"Pista mayor de 1500 pies","nom_aerop":"Mahahual","eleva_pies":7,"l":"SD","h":"Pista pavimentada, transitable todo el tiempo","log_pista":33,"pista_mts":457.2,"num_pistas":0,"denominacion_oficial":"C04_Aeropuertos_2012","modulo_asignado":"Mapa Base","instrumento_vigencia":"","fecha_actualizacion":"2026-07-29","fuente_custodio":"","responsable_institucional":"","proyeccion_original":"EPSG:6372","proyeccion_actual":"EPSG:4326","cobertura_territorial":"","restricciones_uso":""},"geometry":{"type":"Point","coordinates":[-87.690127,18.761149]}},{"type":"Feature","properties":{"gid":43,"tipo":"Civil terrestre (Mayor)","clase":"Aerï¿½dromos y Aeropuertos","tam_pista":"Pista mayor de 1500 pies","nom_aerop":"Xcalac","eleva_pies":7,"l":"SD","h":"Pista pavimentada, transitable todo el tiempo","log_pista":39,"pista_mts":457.2,"num_pistas":0,"denominacion_oficial":"C04_Aeropuertos_2012","modulo_asignado":"Mapa Base","instrumento_vigencia":"","fecha_actualizacion":"2026-07-29","fuente_custodio":"","responsable_institucional":"","proyeccion_original":"EPSG:6372","proyeccion_actual":"EPSG:4326","cobertura_territorial":"","restricciones_uso":""},"geometry":{"type":"Point","coordinates":[-87.855737,18.271456]}},{"type":"Feature","properties":{"gid":49,"tipo":"Civil terrestre (Mayor)","clase":"Aerï¿½dromos y Aeropuertos","tam_pista":"Pista mayor de 1500 pies","nom_aerop":"Xiquipilli","eleva_pies":30,"l":"SD","h":"SD","log_pista":16,"pista_mts":457.2,"num_pistas":0,"denominacion_oficial":"C04_Aeropuertos_2012","modulo_asignado":"Mapa Base","instrumento_vigencia":"","fecha_actualizacion":"2026-07-29","fuente_custodio":"","responsable_institucional":"","proyeccion_original":"EPSG:6372","proyeccion_actual":"EPSG:4326","cobertura_territorial":"","restricciones_uso":""},"geometry":{"type":"Point","coordinates":[-91.743899,17.908123]}},{"type":"Feature","properties":{"gid":51,"tipo":"Aeropuerto 1","clase":"Aerï¿½dromos y Aeropuertos","tam_pista":"SD","nom_aerop":"Palenque","eleva_pies":200,"l":"Iluminaciï¿½n","h":"Pista pavimentada, transitable todo el tiempo","log_pista":49,"pista_mts":0.0,"num_pistas":1,"denominacion_oficial":"C04_Aeropuertos_2012","modulo_asignado":"Mapa Base","instrumento_vigencia":"","fecha_actualizacion":"2026-07-29","fuente_custodio":"","responsable_institucional":"","proyeccion_original":"EPSG:6372","proyeccion_actual":"EPSG:4326","cobertura_territorial":"","restricciones_uso":""},"geometry":{"type":"Point","coordinates":[-91.991004,17.516411]}},{"type":"Feature","properties":{"gid":58,"tipo":"Civil terrestre (Mayor)","clase":"Aerï¿½dromos y Aeropuertos","tam_pista":"Pista mayor de 1500 pies","nom_aerop":"Rancho San Josï¿½ de Pedrero","eleva_pies":52,"l":"SD","h":"Pista pavimentada, transitable todo el tiempo","log_pista":15,"pista_mts":457.2,"num_pistas":0,"denominacion_oficial":"C04_Aeropuertos_2012","modulo_asignado":"Mapa Base","instrumento_vigencia":"","fecha_actualizacion":"2026-07-29","fuente_custodio":"","responsable_institucional":"","proyeccion_original":"EPSG:6372","proyeccion_actual":"EPSG:4326","cobertura_territorial":"","restricciones_uso":""},"geometry":{"type":"Point","coordinates":[-92.939958,17.718803]}},{"type":"Feature","properties":{"gid":59,"tipo":"Civil terrestre (Mayor)","clase":"Aerï¿½dromos y Aeropuertos","tam_pista":"Pista mayor de 1500 pies","nom_aerop":"Jorge Efraï¿½n","eleva_pies":131,"l":"SD","h":"SD","log_pista":30,"pista_mts":457.2,"num_pistas":0,"denominacion_oficial":"C04_Aeropuertos_2012","modulo_asignado":"Mapa Base","instrumento_vigencia":"","fecha_actualizacion":"2026-07-29","fuente_custodio":"","responsable_institucional":"","proyeccion_original":"EPSG:6372","proyeccion_actual":"EPSG:4326","cobertura_territorial":"","restricciones_uso":""},"geometry":{"type":"Point","coordinates":[-92.960921,17.670327]}},{"type":"Feature","properties":{"gid":60,"tipo":"Civil terrestre (Mayor)","clase":"Aerï¿½dromos y Aeropuertos","tam_pista":"Pista mayor de 1500 pies","nom_aerop":"La Florida","eleva_pies":105,"l":"SD","h":"Pista pavimentada, transitable todo el tiempo","log_pista":25,"pista_mts":457.2,"num_pistas":0,"denominacion_oficial":"C04_Aeropuertos_2012","modulo_asignado":"Mapa Base","instrumento_vigencia":"","fecha_actualizacion":"2026-07-29","fuente_custodio":"","responsable_institucional":"","proyeccion_original":"EPSG:6372","proyeccion_actual":"EPSG:4326","cobertura_territorial":"","restricciones_uso":""},"geometry":{"type":"Point","coordinates":[-92.962231,17.648054]}},{"type":"Feature","properties":{"gid":61,"tipo":"Civil terrestre (Mayor)","clase":"Aerï¿½dromos y Aeropuertos","tam_pista":"Pista mayor de 1500 pies","nom_aerop":"Rancho San Josï¿½","eleva_pies":164,"l":"SD","h":"SD","log_pista":16,"pista_mts":457.2,"num_pistas":0,"denominacion_oficial":"C04_Aeropuertos_2012","modulo_asignado":"Mapa Base","instrumento_vigencia":"","fecha_actualizacion":"2026-07-29","fuente_custodio":"","responsable_institucional":"","proyeccion_original":"EPSG:6372","proyeccion_actual":"EPSG:4326","cobertura_territorial":"","restricciones_uso":""},"geometry":{"type":"Point","coordinates":[-92.939958,17.587787]}},{"type":"Feature","properties":{"gid":71,"tipo":"Civil terrestre (Mayor)","clase":"Aerï¿½dromos y Aeropuertos","tam_pista":"Pista mayor de 1500 pies","nom_aerop":"Campo David","eleva_pies":164,"l":"SD","h":"SD","log_pista":22,"pista_mts":457.2,"num_pistas":0,"denominacion_oficial":"C04_Aeropuertos_2012","modulo_asignado":"Mapa Base","instrumento_vigencia":"","fecha_actualizacion":"2026-07-29","fuente_custodio":"","responsable_institucional":"","proyeccion_original":"EPSG:6372","proyeccion_actual":"EPSG:4326","cobertura_territorial":"","restricciones_uso":""},"geometry":{"type":"Point","coordinates":[-93.401133,17.640193]}},{"type":"Feature","properties":{"gid":74,"tipo":"Aeropuerto 1","clase":"Aerï¿½dromos y Aeropuertos","tam_pista":"SD","nom_aerop":"??ngel albino Corzo","eleva_pies":1491,"l":"Iluminaciï¿½n","h":"Pista pavimentada, transitable todo el tiempo","log_pista":82,"pista_mts":0.0,"num_pistas":1,"denominacion_oficial":"C04_Aeropuertos_2012","modulo_asignado":"Mapa Base","instrumento_vigencia":"","fecha_actualizacion":"2026-07-29","fuente_custodio":"","responsable_institucional":"","proyeccion_original":"EPSG:6372","proyeccion_actual":"EPSG:4326","cobertura_territorial":"","restricciones_uso":""},"geometry":{"type":"Point","coordinates":[-93.028559,16.577228]}},{"type":"Feature","properties":{"gid":75,"tipo":"Aeropuerto 1","clase":"Aerï¿½dromos y Aeropuertos","tam_pista":"SD","nom_aerop":"San Cristï¿½bal de las Casas","eleva_pies":7707,"l":"Iluminaciï¿½n","h":"Pista pavimentada, transitable todo el tiempo","log_pista":87,"pista_mts":0.0,"num_pistas":1,"denominacion_oficial":"C04_Aeropuertos_2012","modulo_asignado":"Mapa Base","instrumento_vigencia":"","fecha_actualizacion":"2026-07-29","fuente_custodio":"","responsable_institucional":"","proyeccion_original":"EPSG:6372","proyeccion_actual":"EPSG:4326","cobertura_territorial":"","restricciones_uso":""},"geometry":{"type":"Point","coordinates":[-92.51765,16.692979]}},{"type":"Feature","properties":{"gid":78,"tipo":"Aeropuerto 1","clase":"Aerï¿½dromos y Aeropuertos","tam_pista":"SD","nom_aerop":"Miguel Alemï¿½n","eleva_pies":5249,"l":"SD","h":"SD","log_pista":30,"pista_mts":0.0,"num_pistas":1,"denominacion_oficial":"C04_Aeropuertos_2012","modulo_asignado":"Mapa Base","instrumento_vigencia":"","fecha_actualizacion":"2026-07-29","fuente_custodio":"","responsable_institucional":"","proyeccion_original":"EPSG:6372","proyeccion_actual":"EPSG:4326","cobertura_territorial":"","restricciones_uso":""},"geometry":{"type":"Point","coordinates":[-92.05602,16.181374]}},{"type":"Feature","properties":{"gid":84,"tipo":"Civil terrestre (Mayor)","clase":"Aerï¿½dromos y Aeropuertos","tam_pista":"Pista mayor de 1500 pies","nom_aerop":"La Providencia de Acapetahua","eleva_pies":98,"l":"SD","h":"Pista pavimentada, transitable todo el tiempo","log_pista":26,"pista_mts":457.2,"num_pistas":0,"denominacion_oficial":"C04_Aeropuertos_2012","modulo_asignado":"Mapa Base","instrumento_vigencia":"","fecha_actualizacion":"2026-07-29","fuente_custodio":"","responsable_institucional":"","proyeccion_original":"EPSG:6372","proyeccion_actual":"EPSG:4326","cobertura_territorial":"","restricciones_uso":""},"geometry":{"type":"Point","coordinates":[-92.749383,15.288206]}},{"type":"Feature","properties":{"gid":87,"tipo":"Civil terrestre (Mayor)","clase":"Aerï¿½dromos y Aeropuertos","tam_pista":"Pista mayor de 1500 pies","nom_aerop":"Santa Monika","eleva_pies":328,"l":"SD","h":"Pista pavimentada, transitable todo el tiempo","log_pista":15,"pista_mts":457.2,"num_pistas":0,"denominacion_oficial":"C04_Aeropuertos_2012","modulo_asignado":"Mapa Base","instrumento_vigencia":"","fecha_actualizacion":"2026-07-29","fuente_custodio":"","responsable_institucional":"","proyeccion_original":"EPSG:6372","proyeccion_actual":"EPSG:4326","cobertura_territorial":"","restricciones_uso":""},"geometry":{"type":"Point","coordinates":[-92.363005,14.936231]}},{"type":"Feature","properties":{"gid":88,"tipo":"Civil terrestre (Mayor)","clase":"Aerï¿½dromos y Aeropuertos","tam_pista":"Pista mayor de 1500 pies","nom_aerop":"SD","eleva_pies":0,"l":"SD","h":"SD","log_pista":0,"pista_mts":0.0,"num_pistas":0,"denominacion_oficial":"C04_Aeropuertos_2012","modulo_asignado":"Mapa Base","instrumento_vigencia":"","fecha_actualizacion":"2026-07-29","fuente_custodio":"","responsable_institucional":"","proyeccion_original":"EPSG:6372","proyeccion_actual":"EPSG:4326","cobertura_territorial":"","restricciones_uso":""},"geometry":{"type":"Point","coordinates":[-92.423873,14.917707]}},{"type":"Feature","properties":{"gid":98,"tipo":"Aeropuerto 1","clase":"Aerï¿½dromos y Aeropuertos","tam_pista":"SD","nom_aerop":"Tapachula","eleva_pies":97,"l":"Iluminaciï¿½n","h":"Pista pavimentada, transitable todo el tiempo","log_pista":66,"pista_mts":0.0,"num_pistas":1,"denominacion_oficial":"C04_Aeropuertos_2012","modulo_asignado":"Mapa Base","instrumento_vigencia":"","fecha_actualizacion":"2026-07-29","fuente_custodio":"","responsable_institucional":"","proyeccion_original":"EPSG:6372","proyeccion_actual":"EPSG:4326","cobertura_territorial":"","restricciones_uso":""},"geometry":{"type":"Point","coordinates":[-92.374914,14.790678]}},{"type":"Feature","properties":{"gid":99,"tipo":"Civil terrestre (Mayor)","clase":"Aerï¿½dromos y Aeropuertos","tam_pista":"Pista mayor de 1500 pies","nom_aerop":"Tapachula","eleva_pies":97,"l":"Iluminaciï¿½n","h":"Pista pavimentada, transitable todo el tiempo","log_pista":66,"pista_mts":457.2,"num_pistas":0,"denominacion_oficial":"C04_Aeropuertos_2012","modulo_asignado":"Mapa Base","instrumento_vigencia":"","fecha_actualizacion":"2026-07-29","fuente_custodio":"","responsable_institucional":"","proyeccion_original":"EPSG:6372","proyeccion_actual":"EPSG:4326","cobertura_territorial":"","restricciones_uso":""},"geometry":{"type":"Point","coordinates":[-92.321986,14.817142]}},{"type":"Feature","properties":{"gid":777,"tipo":"Aeropuerto 1","clase":"Aerï¿½dromos y Aeropuertos","tam_pista":"SD","nom_aerop":"Minatitlï¿½n","eleva_pies":36,"l":"Iluminaciï¿½n","h":"Pista pavimentada, transitable todo el tiempo","log_pista":69,"pista_mts":0.0,"num_pistas":1,"denominacion_oficial":"C04_Aeropuertos_2012","modulo_asignado":"Mapa Base","instrumento_vigencia":"","fecha_actualizacion":"2026-07-29","fuente_custodio":"","responsable_institucional":"","proyeccion_original":"EPSG:6372","proyeccion_actual":"EPSG:4326","cobertura_territorial":"","restricciones_uso":""},"geometry":{"type":"Point","coordinates":[-94.571488,18.092337]}},{"type":"Feature","properties":{"gid":778,"tipo":"Aeropuerto 1","clase":"Aerï¿½dromos y Aeropuertos","tam_pista":"SD","nom_aerop":"Cap. P. A. Carlos Rovirosa","eleva_pies":46,"l":"Iluminaciï¿½n","h":"Pista pavimentada, transitable todo el tiempo","log_pista":72,"pista_mts":0.0,"num_pistas":1,"denominacion_oficial":"C04_Aeropuertos_2012","modulo_asignado":"Mapa Base","instrumento_vigencia":"","fecha_actualizacion":"2026-07-29","fuente_custodio":"","responsable_institucional":"","proyeccion_original":"EPSG:6372","proyeccion_actual":"EPSG:4326","cobertura_territorial":"","restricciones_uso":""},"geometry":{"type":"Point","coordinates":[-92.813861,17.99015]}}]}