{"type":"FeatureCollection","name":"C04_ANP_2024","crs":{"type":"name","properties":{"name":"urn:ogc:def:crs:OGC:1.3:CRS84"}},"xy_coordinate_resolution":1e-06,"features":[{"type":"Feature","properties":{"ID_ANP":"ANP00907160","ID_DOF":"9.7.04.160","NOMBRE":"Bala'an K'aax","CAT_MANEJO":"APFF","ESTADOS":"Quintana Roo","SUPERFICIE":128390.1555,"COV_ID":9704160,"cita":"CONANP. 2025. Áreas Naturales Protegidas Federales de México, julio 2025,  Comisión Nacional de Áreas Naturales Protegidas. Ciudad de México, México.","denominacion_oficial":"C04_ANP_2024","modulo_asignado":"Mapa Base","instrumento_vigencia":"","fecha_actualizacion":"2026-07-29","fuente_custodio":"","responsable_institucional":"","proyeccion_original":"EPSG:6372","proyeccion_actual":"EPSG:4326","cobertura_territorial":"","restricciones_uso":""},"geometry":{"type":"MultiPolygon","coordinates":[[[[-89.314535,19.700065],[-89.307035,19.68957],[-89.296156,19.698576],[-89.293577,19.697295],[-89.284093,19.698973],[-89.230032,19.693326],[-89.240041,19.678675],[-89.187056,19.672151],[-89.192724,19.63548],[-89.222906,19.638569],[-89.215162,19.57166],[-89.150725,19.564233],[-89.149557,19.583162],[-89.10903,19.58426],[-89.109168,19.577232],[-89.09825,19.577077],[-89.105307,19.552105],[-89.182707,19.549772],[-89.184035,19.549734],[-89.18566,19.481675],[-89.147421,19.484475],[-89.157316,19.464373],[-89.170034,19.438522],[-89.121634,19.443187],[-89.092879,19.442025],[-89.053488,19.437924],[-89.049582,19.465356],[-89.024107,19.462286],[-89.029055,19.475118],[-89.05744,19.518153],[-89.055457,19.517672],[-89.051444,19.53253],[-88.964034,19.534866],[-88.964316,19.561003],[-88.952109,19.560982],[-88.955191,19.4774],[-88.971587,19.502319],[-89.009261,19.491517],[-89.013686,19.461036],[-88.994681,19.458371],[-88.972914,19.390623],[-88.911764,19.391387],[-88.924168,19.308616],[-88.925617,19.246733],[-88.816646,19.247283],[-88.817149,19.232087],[-88.717516,19.232997],[-88.717454,19.219829],[-88.670045,19.219556],[-88.670592,19.159919],[-88.656363,19.160639],[-88.656255,19.118278],[-88.666257,19.11822],[-88.665945,19.125734],[-88.691824,19.125445],[-88.697198,19.206868],[-88.751184,19.203727],[-88.751336,19.194676],[-88.804804,19.205648],[-88.801706,19.178976],[-88.847444,19.178389],[-88.84598,19.203096],[-88.897792,19.206239],[-88.905665,19.206717],[-88.918254,19.207478],[-88.918452,19.185639],[-88.978396,19.183306],[-88.981058,19.153865],[-89.012659,19.156207],[-89.009173,19.191492],[-89.102848,19.204171],[-89.105814,19.132859],[-89.14336,19.13435],[-89.145215,19.314127],[-89.314329,19.538123],[-89.31793,19.639561],[-89.317297,19.65271],[-89.34374,19.652681],[-89.341924,19.683626],[-89.314535,19.700065]]]]}},{"type":"Feature","properties":{"ID_ANP":"ANP00707116","ID_DOF":"7.7.01.116","NOMBRE":"Laguna de Términos","CAT_MANEJO":"APFF","ESTADOS":"Campeche","SUPERFICIE":706147.67,"COV_ID":7701116,"cita":"CONANP. 2025. Áreas Naturales Protegidas Federales de México, julio 2025,  Comisión Nacional de Áreas Naturales Protegidas. Ciudad de México, México.","denominacion_oficial":"C04_ANP_2024","modulo_asignado":"Mapa Base","instrumento_vigencia":"","fecha_actualizacion":"2026-07-29","fuente_custodio":"","responsable_institucional":"","proyeccion_original":"EPSG:6372","proyeccion_actual":"EPSG:4326","cobertura_territorial":"","restricciones_uso":""},"geometry":{"type":"MultiPolygon","coordinates":[[[[-91.116422,19.170837],[-91.058334,19.081527],[-91.068154,19.062208],[-91.093387,19.040609],[-91.111131,19.012967],[-91.078441,18.985621],[-91.239773,18.850893],[-91.158565,18.770791],[-91.216232,18.662302],[-91.176393,18.602926],[-91.238971,18.598912],[-91.245003,18.546567],[-91.313249,18.493789],[-91.412762,18.454439],[-91.461544,18.483755],[-91.466909,18.434282],[-91.543866,18.379315],[-91.600199,18.423653],[-91.655154,18.417723],[-91.652233,18.403877],[-91.710606,18.370123],[-91.682119,18.332788],[-91.727119,18.325412],[-91.751346,18.351146],[-91.811119,18.301282],[-91.763339,18.248385],[-91.779446,18.244241],[-91.813236,18.26822],[-91.826402,18.251583],[-91.866356,18.259956],[-92.078118,18.085942],[-92.087077,18.089509],[-92.09143,18.088445],[-92.11012,18.092599],[-92.12183,18.094461],[-92.126013,18.089418],[-92.130657,18.105707],[-92.141466,18.118047],[-92.145716,18.118608],[-92.146165,18.142922],[-92.155248,18.141335],[-92.161192,18.143802],[-92.162781,18.147424],[-92.165313,18.191358],[-92.154586,18.200078],[-92.154065,18.209927],[-92.157981,18.221422],[-92.165594,18.231487],[-92.169944,18.231687],[-92.171577,18.246154],[-92.120425,18.242221],[-92.110874,18.260252],[-92.117483,18.448262],[-92.170478,18.455731],[-92.224469,18.453248],[-92.240592,18.44789],[-92.283173,18.45619],[-92.323885,18.45905],[-92.335723,18.459092],[-92.350467,18.441971],[-92.360864,18.447429],[-92.361764,18.460085],[-92.384432,18.477331],[-92.405257,18.481013],[-92.423184,18.501855],[-92.427875,18.515426],[-92.424489,18.536202],[-92.426791,18.556092],[-92.459802,18.604993],[-92.467343,18.618571],[-92.467289,18.635742],[-92.47198,18.651571],[-92.470946,18.679223],[-92.45387,18.681072],[-92.436875,18.687258],[-92.412464,18.69839],[-92.39357,18.704204],[-92.341861,18.709001],[-92.314627,18.712519],[-92.303812,18.712931],[-92.293949,18.712894],[-92.279623,18.713834],[-92.265298,18.714411],[-92.257896,18.715466],[-92.250006,18.719411],[-92.241271,18.721274],[-92.221797,18.723712],[-92.221816,18.723725],[-92.195402,18.733193],[-92.172162,18.733273],[-92.160678,18.734577],[-92.144439,18.738209],[-92.115872,18.741149],[-92.100776,18.743608],[-92.063789,18.742072],[-92.040136,18.748097],[-92.036897,18.75043],[-92.024244,18.756781],[-92.015316,18.758632],[-92.002037,18.75811],[-91.988751,18.758943],[-91.957877,18.766003],[-91.915094,18.780219],[-91.892201,18.784603],[-91.884785,18.786909],[-91.868556,18.787625],[-91.840122,18.783384],[-91.826371,18.782395],[-91.81374,18.784304],[-91.797629,18.795044],[-91.784422,18.79767],[-91.763236,18.788495],[-91.754045,18.786898],[-91.728047,18.787175],[-91.718539,18.789912],[-91.70519,18.798494],[-91.695702,18.810898],[-91.684709,18.821303],[-91.670412,18.829244],[-91.660624,18.830981],[-91.642438,18.83853],[-91.62275,18.832332],[-91.614124,18.831094],[-91.607281,18.832399],[-91.595948,18.837283],[-91.565557,18.862352],[-91.558035,18.865185],[-91.527318,18.870263],[-91.507226,18.879423],[-91.490815,18.888869],[-91.478933,18.911721],[-91.48071,18.94616],[-91.476715,18.957331],[-91.467418,18.966741],[-91.446121,18.979665],[-91.435559,18.991954],[-91.42347,19.004862],[-91.386097,19.038872],[-91.379315,19.042608],[-91.376106,19.040502],[-91.372394,19.031435],[-91.371018,19.016606],[-91.368421,19.010259],[-91.364665,19.005799],[-91.351802,19.000174],[-91.337516,19.004112],[-91.330366,19.006758],[-91.325485,19.010418],[-91.318843,19.019212],[-91.318531,19.040711],[-91.309174,19.064115],[-91.319599,19.085622],[-91.32632,19.088212],[-91.334675,19.08892],[-91.35177,19.090067],[-91.364863,19.092171],[-91.367205,19.095625],[-91.363459,19.099657],[-91.350549,19.107764],[-91.336363,19.119743],[-91.329868,19.132332],[-91.326144,19.14341],[-91.306299,19.159852],[-91.275744,19.163454],[-91.264142,19.154672],[-91.24918,19.117581],[-91.209242,19.123883],[-91.179253,19.137141],[-91.164851,19.158769],[-91.116422,19.170837]]]]}},{"type":"Feature","properties":{"ID_ANP":"ANP00901148","ID_DOF":"9.1.07.148","NOMBRE":"Ría Celestún","CAT_MANEJO":"RB","ESTADOS":"Yucatán y Campeche","SUPERFICIE":81482.33446,"COV_ID":9107148,"cita":"CONANP. 2025. Áreas Naturales Protegidas Federales de México, julio 2025,  Comisión Nacional de Áreas Naturales Protegidas. Ciudad de México, México.","denominacion_oficial":"C04_ANP_2024","modulo_asignado":"Mapa Base","instrumento_vigencia":"","fecha_actualizacion":"2026-07-29","fuente_custodio":"","responsable_institucional":"","proyeccion_original":"EPSG:6372","proyeccion_actual":"EPSG:4326","cobertura_territorial":"","restricciones_uso":""},"geometry":{"type":"MultiPolygon","coordinates":[[[[-90.239805,20.945739],[-90.24492,20.932659],[-90.271296,20.935824],[-90.307237,20.847283],[-90.318905,20.815316],[-90.295032,20.80437],[-90.304977,20.778876],[-90.335191,20.527832],[-90.345578,20.530251],[-90.492306,20.532431],[-90.520383,20.532848],[-90.499466,20.675827],[-90.381376,20.993378],[-90.239805,20.945739]]]]}},{"type":"Feature","properties":{"ID_ANP":"ANP00901141","ID_DOF":"9.1.06.141","NOMBRE":"Los Petenes","CAT_MANEJO":"RB","ESTADOS":"Campeche","SUPERFICIE":282857.6271,"COV_ID":9106141,"cita":"CONANP. 2025. Áreas Naturales Protegidas Federales de México, julio 2025,  Comisión Nacional de Áreas Naturales Protegidas. Ciudad de México, México.","denominacion_oficial":"C04_ANP_2024","modulo_asignado":"Mapa Base","instrumento_vigencia":"","fecha_actualizacion":"2026-07-29","fuente_custodio":"","responsable_institucional":"","proyeccion_original":"EPSG:6372","proyeccion_actual":"EPSG:4326","cobertura_territorial":"","restricciones_uso":""},"geometry":{"type":"MultiPolygon","coordinates":[[[[-90.50695,19.866236],[-90.511841,19.86169],[-90.830356,19.865845],[-90.804331,19.902773],[-90.772495,19.936381],[-90.734147,19.96346],[-90.696702,19.98934],[-90.705436,20.034681],[-90.706645,20.079797],[-90.692643,20.11302],[-90.70813,20.169611],[-90.702882,20.214499],[-90.70421,20.259662],[-90.706151,20.304724],[-90.712139,20.349316],[-90.707638,20.394177],[-90.714132,20.438983],[-90.715995,20.484099],[-90.710824,20.535452],[-90.520385,20.532844],[-90.492306,20.532431],[-90.345578,20.530248],[-90.335191,20.527832],[-90.334899,20.492118],[-90.326365,20.428803],[-90.328279,20.320468],[-90.347956,20.293609],[-90.348893,20.230492],[-90.33259,20.203195],[-90.33356,20.164656],[-90.359985,20.140413],[-90.36044,20.113297],[-90.351832,20.05902],[-90.353156,19.97813],[-90.391529,19.930545],[-90.50695,19.866236]]]]}},{"type":"Feature","properties":{"ID_ANP":"ANP00701104","ID_DOF":"7.1.01.104","NOMBRE":"Pantanos de Centla","CAT_MANEJO":"RB","ESTADOS":"Tabasco","SUPERFICIE":302706.625,"COV_ID":7101104,"cita":"CONANP. 2025. Áreas Naturales Protegidas Federales de México, julio 2025,  Comisión Nacional de Áreas Naturales Protegidas. Ciudad de México, México.","denominacion_oficial":"C04_ANP_2024","modulo_asignado":"Mapa Base","instrumento_vigencia":"","fecha_actualizacion":"2026-07-29","fuente_custodio":"","responsable_institucional":"","proyeccion_original":"EPSG:6372","proyeccion_actual":"EPSG:4326","cobertura_territorial":"","restricciones_uso":""},"geometry":{"type":"MultiPolygon","coordinates":[[[[-92.360861,18.448243],[-92.350467,18.441971],[-92.335723,18.459092],[-92.323885,18.45905],[-92.283173,18.45619],[-92.240592,18.44789],[-92.231098,18.453275],[-92.170478,18.455731],[-92.117483,18.448262],[-92.110874,18.260252],[-92.120425,18.242221],[-92.242415,18.248165],[-92.242349,18.154622],[-92.242714,18.070118],[-92.244453,17.995109],[-92.285178,17.968149],[-92.303122,17.968214],[-92.315322,17.988141],[-92.330426,17.990454],[-92.340801,17.994557],[-92.3304,17.997232],[-92.354024,17.994601],[-92.365268,18.019946],[-92.357671,18.030767],[-92.36143,18.036202],[-92.365701,18.030793],[-92.400178,18.032711],[-92.418042,18.058976],[-92.446375,18.063579],[-92.456789,18.057282],[-92.457768,18.046438],[-92.479515,18.041075],[-92.477556,18.06457],[-92.508749,18.061036],[-92.515379,18.05563],[-92.522527,18.033052],[-92.554138,18.048493],[-92.561684,18.053933],[-92.563556,18.061168],[-92.571098,18.068416],[-92.576295,18.068427],[-92.588133,18.057607],[-92.595693,18.057171],[-92.599464,18.061246],[-92.618392,18.047727],[-92.629224,18.064017],[-92.649506,18.081228],[-92.636725,18.092051],[-92.637635,18.109225],[-92.639037,18.116459],[-92.644705,18.118277],[-92.645627,18.130029],[-92.654143,18.125525],[-92.658865,18.128245],[-92.655065,18.137277],[-92.663575,18.136388],[-92.676758,18.164429],[-92.686676,18.169869],[-92.694685,18.186151],[-92.689939,18.196086],[-92.691816,18.204223],[-92.694587,18.241285],[-92.705,18.236782],[-92.730528,18.24405],[-92.748475,18.262151],[-92.79951,18.305596],[-92.789053,18.344449],[-92.796569,18.390552],[-92.695133,18.466336],[-92.698892,18.48261],[-92.689409,18.48847],[-92.687958,18.504736],[-92.678947,18.511047],[-92.665682,18.511476],[-92.651918,18.524556],[-92.594559,18.540258],[-92.497228,18.610519],[-92.495707,18.643954],[-92.47198,18.651571],[-92.467289,18.635742],[-92.467343,18.618571],[-92.459802,18.604993],[-92.426792,18.555731],[-92.424489,18.536202],[-92.427875,18.515426],[-92.423184,18.501855],[-92.405257,18.481013],[-92.384432,18.477331],[-92.360817,18.460082],[-92.360861,18.448243]]]]}},{"type":"Feature","properties":{"ID_ANP":"ANP00901201","ID_DOF":"9.1.10.201","NOMBRE":"Balam Kú","CAT_MANEJO":"RB","ESTADOS":"Campeche","SUPERFICIE":463441.759731,"COV_ID":9110201,"cita":"CONANP. 2025. Áreas Naturales Protegidas Federales de México, julio 2025,  Comisión Nacional de Áreas Naturales Protegidas. Ciudad de México, México.","denominacion_oficial":"C04_ANP_2024","modulo_asignado":"Mapa Base","instrumento_vigencia":"","fecha_actualizacion":"2026-07-29","fuente_custodio":"","responsable_institucional":"","proyeccion_original":"EPSG:6372","proyeccion_actual":"EPSG:4326","cobertura_territorial":"","restricciones_uso":""},"geometry":{"type":"MultiPolygon","coordinates":[[[[-89.725301,18.897651],[-89.72671,18.512959],[-89.677516,18.514567],[-89.675239,18.550721],[-89.645423,18.551142],[-89.647079,18.505062],[-89.62537,18.50499],[-89.61684,18.42442],[-89.66324,18.41574],[-89.66324,18.415739],[-89.663245,18.415738],[-90.028797,18.415359],[-90.129247,17.816053],[-90.129305,17.815707],[-90.2455,17.815792],[-90.238593,18.01677],[-90.238596,18.01677],[-90.257956,18.01827],[-90.257198,18.075852],[-90.236608,18.074353],[-90.236606,18.074353],[-90.235545,18.10504],[-90.236703,18.167056],[-90.248812,18.166926],[-90.283035,18.166454],[-90.283636,18.198722],[-90.427261,18.197244],[-90.430255,18.27578],[-90.432539,18.331223],[-90.437711,18.469125],[-90.433849,18.50769],[-90.43901,18.507598],[-90.444223,18.507568],[-90.444646,18.510835],[-90.440065,18.512482],[-90.440148,18.512881],[-90.433534,18.513107],[-90.433998,18.51651],[-90.43248,18.516312],[-90.433707,18.53453],[-90.398516,18.536896],[-90.358028,18.546696],[-90.340623,18.547634],[-90.339106,18.548824],[-90.337536,18.561173],[-90.330014,18.562999],[-90.328146,18.56564],[-90.323505,18.566078],[-90.323366,18.566225],[-90.320496,18.566414],[-90.316371,18.568882],[-90.305331,18.568788],[-90.305209,18.571825],[-90.29745,18.571275],[-90.286173,18.541809],[-90.288048,18.514413],[-90.283936,18.513943],[-90.284179,18.511835],[-90.281566,18.504925],[-90.281252,18.504682],[-90.280296,18.504497],[-90.279182,18.504097],[-90.278625,18.503812],[-90.27782,18.503104],[-90.276784,18.502455],[-90.274893,18.501106],[-90.273372,18.50098],[-90.271568,18.499866],[-90.270574,18.498309],[-90.269611,18.497559],[-90.268623,18.496881],[-90.267196,18.497416],[-90.267245,18.499095],[-90.262734,18.499396],[-90.262862,18.500589],[-90.255672,18.501376],[-90.25623,18.503922],[-90.253439,18.504208],[-90.253287,18.503422],[-90.24097,18.504775],[-90.241941,18.501367],[-90.242303,18.498474],[-90.244308,18.498265],[-90.243698,18.493471],[-90.243328,18.489994],[-90.241523,18.491374],[-90.239701,18.484473],[-90.238469,18.480223],[-90.239858,18.479556],[-90.239306,18.47849],[-90.238225,18.478446],[-90.237612,18.476625],[-90.237157,18.473321],[-90.236998,18.472172],[-90.223253,18.472773],[-90.218687,18.473135],[-90.21793,18.473194],[-90.217154,18.473259],[-90.215759,18.473394],[-90.213654,18.473546],[-90.209838,18.473845],[-90.206072,18.474163],[-90.203879,18.474325],[-90.191323,18.475289],[-90.18503,18.475716],[-90.179415,18.476002],[-90.174669,18.4763],[-90.171675,18.476459],[-90.169831,18.476553],[-90.169183,18.476594],[-90.166858,18.476708],[-90.166855,18.476708],[-90.16584,18.480024],[-90.165449,18.483501],[-90.164801,18.488905],[-90.164434,18.491626],[-90.164085,18.494927],[-90.163416,18.501237],[-90.162862,18.50647],[-90.162275,18.512009],[-90.159366,18.512252],[-90.157135,18.514483],[-90.159217,18.517903],[-90.159183,18.521879],[-90.160625,18.522091],[-90.16231,18.522514],[-90.163026,18.521277],[-90.167581,18.522601],[-90.16971,18.522545],[-90.169476,18.52626],[-90.168564,18.529653],[-90.168748,18.531337],[-90.161242,18.529283],[-90.156492,18.534568],[-90.153431,18.545076],[-90.14727,18.542691],[-90.144735,18.553321],[-90.144309,18.554103],[-90.140967,18.553348],[-90.141207,18.552319],[-90.131487,18.550237],[-90.132002,18.548644],[-90.133138,18.543884],[-90.119384,18.539259],[-90.117799,18.546697],[-90.117133,18.550619],[-90.116531,18.551945],[-90.117636,18.557415],[-90.120047,18.558268],[-90.125608,18.559548],[-90.122145,18.564393],[-90.125363,18.565193],[-90.120842,18.573357],[-90.114743,18.569271],[-90.112462,18.577317],[-90.114145,18.578815],[-90.11385,18.57909],[-90.116651,18.580777],[-90.115961,18.581975],[-90.114036,18.580107],[-90.113148,18.583753],[-90.110521,18.583458],[-90.108046,18.582649],[-90.107921,18.58306],[-90.106857,18.587522],[-90.104658,18.586408],[-90.104734,18.58579],[-90.100331,18.583174],[-90.095696,18.580656],[-90.091505,18.578129],[-90.088926,18.576214],[-90.087299,18.575415],[-90.086542,18.575058],[-90.083758,18.573887],[-90.082173,18.573459],[-90.079675,18.572259],[-90.079663,18.571763],[-90.079613,18.571613],[-90.079571,18.571563],[-90.079478,18.571563],[-90.079349,18.571641],[-90.079142,18.571734],[-90.078921,18.571734],[-90.078578,18.571606],[-90.077517,18.571385],[-90.076758,18.578755],[-90.076318,18.583028],[-90.075652,18.589498],[-90.075298,18.592936],[-90.067267,18.595559],[-90.062493,18.597156],[-90.062754,18.598916],[-90.063014,18.601836],[-90.063082,18.603155],[-90.064082,18.606095],[-90.066302,18.608635],[-90.066851,18.609725],[-90.06782,18.611266],[-90.068153,18.611791],[-90.06872,18.612684],[-90.069827,18.614115],[-90.071513,18.615305],[-90.072352,18.616165],[-90.073802,18.616325],[-90.075122,18.616144],[-90.077296,18.618714],[-90.07844,18.619394],[-90.081767,18.621154],[-90.084231,18.621654],[-90.086932,18.621585],[-90.088435,18.621345],[-90.090175,18.620596],[-90.090425,18.620364],[-90.091731,18.619156],[-90.092921,18.617254],[-90.094951,18.616445],[-90.094913,18.619025],[-90.094981,18.620686],[-90.095147,18.621353],[-90.095607,18.623205],[-90.096095,18.625835],[-90.095927,18.627894],[-90.095751,18.629326],[-90.095882,18.630765],[-90.096316,18.632825],[-90.097163,18.633904],[-90.098404,18.634035],[-90.097576,18.634642],[-90.097351,18.635906],[-90.097702,18.637232],[-90.098285,18.638457],[-90.099935,18.640671],[-90.100669,18.641836],[-90.101179,18.64309],[-90.101203,18.644444],[-90.100448,18.645499],[-90.09897,18.646382],[-90.097997,18.646964],[-90.097412,18.648077],[-90.098176,18.649208],[-90.10009,18.650363],[-90.100579,18.650657],[-90.10166,18.651534],[-90.102436,18.652669],[-90.103062,18.653885],[-90.103184,18.655212],[-90.102489,18.656405],[-90.101598,18.65749],[-90.101173,18.658711],[-90.101956,18.659852],[-90.104705,18.660566],[-90.105996,18.661118],[-90.10721,18.661901],[-90.108076,18.662946],[-90.109267,18.66538],[-90.11024,18.667959],[-90.111041,18.670562],[-90.110997,18.671926],[-90.110558,18.674603],[-90.109514,18.678544],[-90.10908,18.679833],[-90.108409,18.681022],[-90.107782,18.681686],[-90.10728,18.682218],[-90.108265,18.683981],[-90.108545,18.686713],[-90.111463,18.689895],[-90.120443,18.690717],[-90.122041,18.691549],[-90.123958,18.691898],[-90.127759,18.693216],[-90.125736,18.699794],[-90.124886,18.704898],[-90.12401,18.711219],[-90.124039,18.713496],[-90.12398,18.716297],[-90.122086,18.716103],[-90.117071,18.715581],[-90.11268,18.715123],[-90.110298,18.714875],[-90.10565,18.714391],[-90.09862,18.713659],[-90.093947,18.713172],[-90.091633,18.712931],[-90.08973,18.732191],[-90.110967,18.734047],[-90.111681,18.724839],[-90.120929,18.726297],[-90.128082,18.726958],[-90.135603,18.727653],[-90.143094,18.728345],[-90.152594,18.729222],[-90.160436,18.729946],[-90.16064,18.729964],[-90.173249,18.731062],[-90.1666,18.787673],[-90.165923,18.793653],[-90.175769,18.794766],[-90.175507,18.7995],[-90.175373,18.805845],[-90.175455,18.814455],[-90.189897,18.81482],[-90.189446,18.818301],[-90.194851,18.819065],[-90.194052,18.856538],[-90.192493,18.856541],[-90.191889,18.892751],[-90.216418,18.892794],[-90.206082,18.949257],[-90.1683,18.978539],[-90.063026,18.97015],[-90.068258,18.924195],[-89.725301,18.897651]]]]}},{"type":"Feature","properties":{"ID_ANP":"ANP00907202","ID_DOF":"9.7.12.202","NOMBRE":"Balam Kin","CAT_MANEJO":"APFF","ESTADOS":"Campeche","SUPERFICIE":115658.247486,"COV_ID":9712202,"cita":"CONANP. 2025. Áreas Naturales Protegidas Federales de México, julio 2025,  Comisión Nacional de Áreas Naturales Protegidas. Ciudad de México, México.","denominacion_oficial":"C04_ANP_2024","modulo_asignado":"Mapa Base","instrumento_vigencia":"","fecha_actualizacion":"2026-07-29","fuente_custodio":"","responsable_institucional":"","proyeccion_original":"EPSG:6372","proyeccion_actual":"EPSG:4326","cobertura_territorial":"","restricciones_uso":""},"geometry":{"type":"MultiPolygon","coordinates":[[[[-89.58273,19.064943],[-89.583026,18.899687],[-89.725301,18.897651],[-90.068258,18.924195],[-90.063026,18.97015],[-90.175604,18.979121],[-90.170642,19.053477],[-90.17058,19.054399],[-90.167334,19.054245],[-90.157735,19.053787],[-90.156232,19.053715],[-90.155564,19.053683],[-90.153953,19.061124],[-90.153556,19.062924],[-90.153466,19.063284],[-90.153453,19.063284],[-90.152197,19.063306],[-89.802521,19.068955],[-89.771541,19.069423],[-89.749893,19.204714],[-89.667408,19.192858],[-89.666398,19.070974],[-89.58273,19.064943]]]]}},{"type":"Feature","properties":{"ID_ANP":"ANP00901101","ID_DOF":"9.1.02.101","NOMBRE":"Calakmul","CAT_MANEJO":"RB","ESTADOS":"Campeche","SUPERFICIE":728908.576313,"COV_ID":9102101,"cita":"CONANP. 2025. Áreas Naturales Protegidas Federales de México, julio 2025,  Comisión Nacional de Áreas Naturales Protegidas. Ciudad de México, México.","denominacion_oficial":"C04_ANP_2024","modulo_asignado":"Mapa Base","instrumento_vigencia":"","fecha_actualizacion":"2026-07-29","fuente_custodio":"","responsable_institucional":"","proyeccion_original":"EPSG:6372","proyeccion_actual":"EPSG:4326","cobertura_territorial":"","restricciones_uso":""},"geometry":{"type":"MultiPolygon","coordinates":[[[[-89.358617,19.033629],[-89.358709,19.006534],[-89.251418,19.006968],[-89.250512,19.150583],[-89.151152,19.147256],[-89.154257,18.835607],[-89.232068,18.837401],[-89.232181,18.774174],[-89.232998,18.764228],[-89.303189,18.766086],[-89.30176,18.800425],[-89.260038,18.800935],[-89.257761,18.843413],[-89.346023,18.846386],[-89.347054,18.852244],[-89.421058,18.853102],[-89.421819,18.807033],[-89.375801,18.805367],[-89.375956,18.748917],[-89.338028,18.748492],[-89.337368,18.700632],[-89.438799,18.702048],[-89.441127,18.599961],[-89.506488,18.600456],[-89.506753,18.553941],[-89.494433,18.553201],[-89.49341,18.482768],[-89.499029,18.47863],[-89.499255,18.428953],[-89.512449,18.429606],[-89.512401,18.42197],[-89.535721,18.42242],[-89.537504,18.391866],[-89.485484,18.392554],[-89.483917,18.415155],[-89.447932,18.412913],[-89.465364,18.374753],[-89.488101,18.377166],[-89.490484,18.345523],[-89.462998,18.341364],[-89.466484,18.287126],[-89.482119,18.289633],[-89.487159,18.245309],[-89.498954,18.210833],[-89.465871,18.210358],[-89.468278,18.112776],[-89.477709,18.111751],[-89.474692,18.031399],[-89.414158,18.023131],[-89.416639,18.066459],[-89.394924,18.06673],[-89.393702,17.976412],[-89.351296,17.981447],[-89.351715,18.01306],[-89.324343,18.01339],[-89.32276,17.964627],[-89.362852,17.96324],[-89.346196,17.952601],[-89.320036,17.936655],[-89.345684,17.913763],[-89.312666,17.914158],[-89.314469,17.871225],[-89.328616,17.871057],[-89.32561,17.815511],[-89.376704,17.815483],[-89.411062,17.815452],[-89.463244,17.815424],[-89.515728,17.815382],[-89.585736,17.815438],[-89.65561,17.815475],[-89.702336,17.815514],[-89.743433,17.815592],[-89.776185,17.8158],[-89.809461,17.815936],[-89.867351,17.81597],[-89.925591,17.815922],[-89.958182,17.815931],[-89.99039,17.815854],[-90.065686,17.815769],[-90.115429,17.815692],[-90.129305,17.815707],[-90.129247,17.816053],[-90.028797,18.415359],[-89.663245,18.415738],[-89.616841,18.424424],[-89.625365,18.504989],[-89.647079,18.505062],[-89.645423,18.551142],[-89.675239,18.550721],[-89.677516,18.514567],[-89.72671,18.512959],[-89.725301,18.897651],[-89.583026,18.899687],[-89.58273,19.064943],[-89.666398,19.070974],[-89.667408,19.192858],[-89.511379,19.18242],[-89.510091,19.03434],[-89.358617,19.033629]],[[-89.559235,18.482483],[-89.527477,18.482316],[-89.528981,18.520228],[-89.561865,18.520693],[-89.559235,18.482483]]]]}},{"type":"Feature","properties":{"ID_ANP":"ANP00903207","ID_DOF":"9.3.09.207","NOMBRE":"Nuevo Uxmal","CAT_MANEJO":"PN","ESTADOS":"Campeche y Yucatán","SUPERFICIE":1698.54252,"COV_ID":9309207,"cita":"CONANP. 2025. Áreas Naturales Protegidas Federales de México, julio 2025,  Comisión Nacional de Áreas Naturales Protegidas. Ciudad de México, México.","denominacion_oficial":"C04_ANP_2024","modulo_asignado":"Mapa Base","instrumento_vigencia":"","fecha_actualizacion":"2026-07-29","fuente_custodio":"","responsable_institucional":"","proyeccion_original":"EPSG:6372","proyeccion_actual":"EPSG:4326","cobertura_territorial":"","restricciones_uso":""},"geometry":{"type":"MultiPolygon","coordinates":[[[[-89.821267,20.33947],[-89.821497,20.338381],[-89.821989,20.338617],[-89.823893,20.338184],[-89.833156,20.338751],[-89.834388,20.338859],[-89.831892,20.342879],[-89.825117,20.341859],[-89.822709,20.341536],[-89.821346,20.341131],[-89.821541,20.340998],[-89.821632,20.340237],[-89.821267,20.33947]]],[[[-89.86242,20.344491],[-89.858042,20.343817],[-89.857245,20.343879],[-89.850669,20.339936],[-89.846681,20.340662],[-89.843607,20.339321],[-89.843675,20.33873],[-89.841218,20.337409],[-89.841318,20.335467],[-89.839478,20.334434],[-89.849309,20.322971],[-89.849221,20.32136],[-89.847981,20.320746],[-89.846165,20.321283],[-89.834642,20.326059],[-89.831921,20.32515],[-89.829361,20.325172],[-89.828923,20.325423],[-89.828849,20.326077],[-89.829218,20.327095],[-89.830566,20.328596],[-89.829892,20.330333],[-89.828129,20.331105],[-89.826059,20.330359],[-89.820739,20.335634],[-89.821336,20.337941],[-89.821095,20.338291],[-89.82091,20.339544],[-89.821277,20.34024],[-89.821187,20.34077],[-89.820984,20.34086],[-89.818197,20.338728],[-89.818243,20.336501],[-89.818282,20.33578],[-89.820015,20.328841],[-89.8216,20.322507],[-89.822693,20.31726],[-89.823493,20.313493],[-89.823807,20.31208],[-89.824758,20.30854],[-89.825293,20.30651],[-89.825325,20.306237],[-89.825802,20.306216],[-89.846352,20.307189],[-89.854917,20.307593],[-89.870856,20.308345],[-89.870667,20.314264],[-89.867971,20.323095],[-89.867817,20.324198],[-89.866081,20.336621],[-89.86601,20.337133],[-89.864998,20.344936],[-89.864995,20.344937],[-89.864313,20.345171],[-89.863721,20.345061],[-89.86242,20.344491]]],[[[-89.854175,20.346912],[-89.840282,20.344276],[-89.836269,20.343539],[-89.832246,20.342933],[-89.83466,20.339033],[-89.835344,20.339297],[-89.839831,20.341327],[-89.841587,20.341138],[-89.842425,20.340818],[-89.843596,20.339794],[-89.843996,20.339932],[-89.843955,20.340045],[-89.844439,20.34024],[-89.844493,20.340128],[-89.846586,20.341139],[-89.848511,20.340749],[-89.848625,20.341067],[-89.849511,20.340865],[-89.849438,20.340588],[-89.850716,20.34033],[-89.857139,20.344243],[-89.858185,20.344179],[-89.8624,20.344949],[-89.863715,20.345523],[-89.864327,20.345611],[-89.864936,20.345414],[-89.86451,20.3487],[-89.860918,20.347966],[-89.854175,20.346912]]]]}},{"type":"Feature","properties":{"ID_ANP":"ANP00908211","ID_DOF":"9.8.03.211","NOMBRE":"Playa Chenkan","CAT_MANEJO":"SANT","ESTADOS":"Campeche","SUPERFICIE":39.555996,"COV_ID":9803211,"cita":"CONANP. 2025. Áreas Naturales Protegidas Federales de México, julio 2025,  Comisión Nacional de Áreas Naturales Protegidas. Ciudad de México, México.","denominacion_oficial":"C04_ANP_2024","modulo_asignado":"Mapa Base","instrumento_vigencia":"","fecha_actualizacion":"2026-07-29","fuente_custodio":"","responsable_institucional":"","proyeccion_original":"EPSG:6372","proyeccion_actual":"EPSG:4326","cobertura_territorial":"","restricciones_uso":""},"geometry":{"type":"MultiPolygon","coordinates":[[[[-90.957412,19.143381],[-90.957677,19.143223],[-90.95801,19.143079],[-90.95808,19.143049],[-90.958249,19.143079],[-90.95828,19.142999],[-90.958286,19.14291],[-90.958299,19.142737],[-90.958664,19.142556],[-90.958978,19.142402],[-90.959322,19.142169],[-90.959654,19.141971],[-90.959944,19.141799],[-90.96027,19.141592],[-90.960567,19.141427],[-90.960926,19.141225],[-90.961193,19.141063],[-90.961467,19.140888],[-90.961786,19.140678],[-90.962056,19.140509],[-90.962393,19.140318],[-90.962711,19.140084],[-90.962998,19.139869],[-90.963241,19.139671],[-90.963402,19.139507],[-90.963531,19.139268],[-90.963696,19.138994],[-90.96389,19.138805],[-90.964153,19.138556],[-90.964445,19.138353],[-90.964686,19.138164],[-90.96491,19.13801],[-90.96513,19.137827],[-90.965379,19.137646],[-90.96559,19.137466],[-90.965855,19.137275],[-90.966104,19.137067],[-90.96632,19.136903],[-90.966602,19.136699],[-90.966861,19.136518],[-90.967134,19.136318],[-90.967447,19.136133],[-90.967729,19.135964],[-90.967993,19.135804],[-90.968252,19.135639],[-90.968536,19.135466],[-90.968818,19.135285],[-90.969072,19.135122],[-90.969369,19.13494],[-90.969613,19.134795],[-90.969834,19.134654],[-90.970053,19.134536],[-90.970332,19.134343],[-90.970597,19.134161],[-90.970906,19.133963],[-90.971132,19.133841],[-90.971378,19.1337],[-90.971655,19.133554],[-90.971948,19.133393],[-90.972242,19.133238],[-90.972516,19.133096],[-90.972775,19.132948],[-90.972999,19.132804],[-90.973236,19.132632],[-90.973474,19.132492],[-90.973742,19.132318],[-90.974028,19.13215],[-90.97428,19.132008],[-90.974473,19.131892],[-90.974712,19.131765],[-90.974964,19.13162],[-90.975242,19.131477],[-90.975481,19.131361],[-90.975716,19.131253],[-90.975996,19.131098],[-90.976222,19.131002],[-90.97645,19.130893],[-90.976715,19.130766],[-90.976999,19.130586],[-90.979243,19.129253],[-90.980537,19.128317],[-90.98138,19.127741],[-90.982718,19.126833],[-90.985605,19.124835],[-90.987502,19.123489],[-90.987716,19.123257],[-90.987939,19.123042],[-90.988168,19.122854],[-90.9884,19.122666],[-90.988637,19.122474],[-90.988935,19.12226],[-90.989148,19.122092],[-90.98935,19.121934],[-90.989599,19.121742],[-90.989834,19.121579],[-90.990077,19.121357],[-90.990377,19.12115],[-90.991227,19.120638],[-90.991821,19.120147],[-90.993059,19.119233],[-90.993886,19.118664],[-90.994682,19.118133],[-90.995199,19.117818],[-90.995958,19.117425],[-90.996746,19.117075],[-90.997546,19.116639],[-90.99821,19.116187],[-90.998903,19.11587],[-90.999404,19.115603],[-91.000525,19.114908],[-91.001547,19.114295],[-91.003021,19.113503],[-91.00413,19.112894],[-91.006089,19.111698],[-91.007765,19.110756],[-91.009251,19.110041],[-91.010581,19.109448],[-91.011572,19.108919],[-91.012081,19.108541],[-91.012601,19.108204],[-91.013043,19.107815],[-91.013225,19.107661],[-91.013482,19.107519],[-91.013772,19.107365],[-91.014021,19.107244],[-91.014287,19.107115],[-91.014511,19.106994],[-91.014745,19.106879],[-91.015015,19.106718],[-91.015255,19.106586],[-91.015481,19.106465],[-91.015718,19.106346],[-91.015992,19.106203],[-91.016257,19.106065],[-91.016495,19.105925],[-91.016747,19.105777],[-91.017013,19.105631],[-91.017278,19.105492],[-91.017548,19.105366],[-91.017796,19.105224],[-91.018041,19.10509],[-91.018273,19.104945],[-91.018485,19.104804],[-91.018739,19.104653],[-91.018993,19.104508],[-91.019256,19.10434],[-91.019481,19.104223],[-91.019714,19.104086],[-91.019955,19.103975],[-91.020189,19.10384],[-91.020474,19.103715],[-91.020701,19.103599],[-91.020965,19.103438],[-91.021224,19.103289],[-91.021458,19.10314],[-91.021661,19.102999],[-91.021876,19.102871],[-91.022122,19.102719],[-91.022348,19.102588],[-91.022612,19.102429],[-91.022901,19.102252],[-91.023108,19.102113],[-91.023325,19.10194],[-91.023519,19.101767],[-91.023732,19.101589],[-91.023944,19.101402],[-91.024167,19.101251],[-91.024384,19.101083],[-91.024607,19.100914],[-91.024813,19.100772],[-91.024989,19.100657],[-91.025254,19.100492],[-91.025473,19.100364],[-91.025688,19.100263],[-91.025889,19.100167],[-91.026109,19.10006],[-91.026355,19.099945],[-91.026576,19.099846],[-91.02682,19.09972],[-91.027039,19.09961],[-91.027285,19.09948],[-91.027515,19.09935],[-91.027728,19.099238],[-91.027944,19.099134],[-91.028195,19.099025],[-91.028401,19.098935],[-91.028656,19.098839],[-91.02895,19.09873],[-91.02916,19.098651],[-91.029384,19.098576],[-91.029602,19.0985],[-91.029841,19.098412],[-91.030051,19.09832],[-91.030271,19.098196],[-91.030473,19.098069],[-91.030673,19.097947],[-91.030866,19.097825],[-91.031059,19.09769],[-91.031268,19.097551],[-91.031488,19.097416],[-91.031749,19.097274],[-91.032028,19.097121],[-91.032232,19.097033],[-91.032452,19.09692],[-91.03261,19.096862],[-91.03282,19.096767],[-91.033055,19.096658],[-91.033227,19.09659],[-91.033716,19.096352],[-91.033946,19.096238],[-91.034163,19.096123],[-91.034384,19.095999],[-91.034594,19.095875],[-91.034784,19.095721],[-91.034989,19.095551],[-91.035185,19.095383],[-91.035356,19.095211],[-91.035534,19.095028],[-91.03572,19.094845],[-91.035875,19.094693],[-91.03607,19.094515],[-91.036221,19.094373],[-91.036422,19.094196],[-91.036595,19.094062],[-91.036745,19.093914],[-91.036909,19.093767],[-91.037067,19.093628],[-91.037225,19.093474],[-91.037392,19.093327],[-91.037596,19.093164],[-91.037809,19.093],[-91.037974,19.092881],[-91.038173,19.092745],[-91.038356,19.09263],[-91.038539,19.092531],[-91.038745,19.092422],[-91.038911,19.092331],[-91.039114,19.092197],[-91.039386,19.092043],[-91.039679,19.091877],[-91.039979,19.091704],[-91.040256,19.091553],[-91.040575,19.091393],[-91.040854,19.091238],[-91.04118,19.091082],[-91.041469,19.090939],[-91.041753,19.090755],[-91.042014,19.090601],[-91.042274,19.090427],[-91.042338,19.090382],[-91.042581,19.090223],[-91.042725,19.090136],[-91.042971,19.089986],[-91.043222,19.089824],[-91.043477,19.089663],[-91.043721,19.089514],[-91.043934,19.089396],[-91.044199,19.089267],[-91.044305,19.089203],[-91.044564,19.089056],[-91.044746,19.088967],[-91.044993,19.088821],[-91.045232,19.088663],[-91.045473,19.088512],[-91.045702,19.088353],[-91.045964,19.088194],[-91.04624,19.088021],[-91.046522,19.087869],[-91.046815,19.087708],[-91.047073,19.087585],[-91.047369,19.087454],[-91.047613,19.087329],[-91.047918,19.087168],[-91.048197,19.087031],[-91.048468,19.086901],[-91.048778,19.086737],[-91.049475,19.086436],[-91.051408,19.085403],[-91.052024,19.085053],[-91.053457,19.084308],[-91.054408,19.083824],[-91.055305,19.083342],[-91.055829,19.083081],[-91.057378,19.082213],[-91.058394,19.081619],[-91.05849,19.081767],[-91.055123,19.083921],[-91.054418,19.084297],[-91.051647,19.085518],[-91.050519,19.086223],[-91.04998,19.086357],[-91.048919,19.086969],[-91.048509,19.087225],[-91.048264,19.087351],[-91.047385,19.087823],[-91.04675,19.088247],[-91.0464,19.08843],[-91.046059,19.088609],[-91.045695,19.088803],[-91.045496,19.088994],[-91.045364,19.089121],[-91.04507,19.089324],[-91.044804,19.08944],[-91.044555,19.089549],[-91.044319,19.089653],[-91.043162,19.090339],[-91.043035,19.090384],[-91.042804,19.090528],[-91.042547,19.090687],[-91.042242,19.090877],[-91.041128,19.091533],[-91.040326,19.091861],[-91.037977,19.093318],[-91.034642,19.096277],[-91.03404,19.096544],[-91.032427,19.0973],[-91.031407,19.097792],[-91.030772,19.0983],[-91.030062,19.098695],[-91.030052,19.098702],[-91.029608,19.098854],[-91.029049,19.09905],[-91.028096,19.099464],[-91.027192,19.099987],[-91.026866,19.100113],[-91.026644,19.100225],[-91.025706,19.100607],[-91.02506,19.101105],[-91.024823,19.10126],[-91.024065,19.101753],[-91.024046,19.101766],[-91.023445,19.102306],[-91.021637,19.103387],[-91.021034,19.103781],[-91.020087,19.104347],[-91.019331,19.10473],[-91.018181,19.105418],[-91.017049,19.106072],[-91.014816,19.107355],[-91.014131,19.107651],[-91.013593,19.107946],[-91.01329,19.108112],[-91.012414,19.108592],[-91.011656,19.109119],[-91.011345,19.109303],[-91.010552,19.10969],[-91.009751,19.110081],[-91.007852,19.110949],[-91.00653,19.111741],[-91.005465,19.112421],[-91.005174,19.11259],[-91.004286,19.113107],[-91.003696,19.113458],[-91.002696,19.113988],[-91.002619,19.11403],[-91.001512,19.114588],[-90.999529,19.115754],[-90.997769,19.116874],[-90.997735,19.116895],[-90.995323,19.118118],[-90.992553,19.119881],[-90.992018,19.120258],[-90.99121,19.120825],[-90.990693,19.121165],[-90.990519,19.121293],[-90.990489,19.121295],[-90.9902,19.121495],[-90.990023,19.121658],[-90.989956,19.121718],[-90.989715,19.121885],[-90.98947,19.122074],[-90.989269,19.122231],[-90.989053,19.122401],[-90.988888,19.12252],[-90.988756,19.122615],[-90.988523,19.122803],[-90.988292,19.122991],[-90.988069,19.123174],[-90.987951,19.123288],[-90.987856,19.12338],[-90.987815,19.123424],[-90.987644,19.123609],[-90.987477,19.123887],[-90.987473,19.123893],[-90.986559,19.124549],[-90.985952,19.124948],[-90.984999,19.125595],[-90.983951,19.12628],[-90.983282,19.126674],[-90.982845,19.127034],[-90.982409,19.127351],[-90.981769,19.127785],[-90.981388,19.128129],[-90.980795,19.1284],[-90.980209,19.128875],[-90.979499,19.129393],[-90.978739,19.129851],[-90.97779,19.130378],[-90.977103,19.130738],[-90.97681,19.130923],[-90.976536,19.131054],[-90.976303,19.131165],[-90.976083,19.131259],[-90.975805,19.131412],[-90.975565,19.131523],[-90.97533,19.131637],[-90.975058,19.131777],[-90.974807,19.131921],[-90.97457,19.132048],[-90.974379,19.132162],[-90.974127,19.132304],[-90.973846,19.132469],[-90.973577,19.132644],[-90.973344,19.13278],[-90.97311,19.132951],[-90.972878,19.1331],[-90.972611,19.133252],[-90.972415,19.133354],[-90.972333,19.133397],[-90.972041,19.13355],[-90.971761,19.133704],[-90.971748,19.133711],[-90.971473,19.133856],[-90.971228,19.133997],[-90.971006,19.134117],[-90.970705,19.134309],[-90.970444,19.134489],[-90.970156,19.134688],[-90.969987,19.134779],[-90.969934,19.134808],[-90.969716,19.134946],[-90.969471,19.135092],[-90.969177,19.135272],[-90.968924,19.135435],[-90.96864,19.135617],[-90.968543,19.135676],[-90.968356,19.13579],[-90.968097,19.135956],[-90.967831,19.136116],[-90.967548,19.136286],[-90.967242,19.136466],[-90.966976,19.136662],[-90.966716,19.136843],[-90.966437,19.137045],[-90.966226,19.137206],[-90.965975,19.137415],[-90.965711,19.137605],[-90.9655,19.137785],[-90.965251,19.137967],[-90.965028,19.138152],[-90.964802,19.138307],[-90.964562,19.138496],[-90.964138,19.138827],[-90.96401,19.138955],[-90.963738,19.139391],[-90.963627,19.139486],[-90.963558,19.139612],[-90.963373,19.139801],[-90.963119,19.140008],[-90.962828,19.140226],[-90.9625,19.140468],[-90.962157,19.140662],[-90.961892,19.140827],[-90.961574,19.141037],[-90.961297,19.141214],[-90.961026,19.141379],[-90.960663,19.141582],[-90.960371,19.141745],[-90.960047,19.14195],[-90.959755,19.142124],[-90.959427,19.142319],[-90.959077,19.142556],[-90.958752,19.142717],[-90.95858,19.142902],[-90.958458,19.14306],[-90.958374,19.143284],[-90.958104,19.143237],[-90.957768,19.143382],[-90.957514,19.143533],[-90.957442,19.143577],[-90.957231,19.143707],[-90.956909,19.14395],[-90.956613,19.144165],[-90.956253,19.14439],[-90.956026,19.144521],[-90.955663,19.144758],[-90.95556,19.144606],[-90.955922,19.144369],[-90.956151,19.144237],[-90.956503,19.144017],[-90.956792,19.143807],[-90.95712,19.14356],[-90.957302,19.143448],[-90.957412,19.143381]]]]}}]}