{"type":"FeatureCollection","name":"C04_estaciones_RFN25","crs":{"type":"name","properties":{"name":"urn:ogc:def:crs:OGC:1.3:CRS84"}},"xy_coordinate_resolution":1e-06,"features":[{"type":"Feature","properties":{"IDOD":280,"TIPO_OD":"Estación de pasajeros","Jurisdicc":"Campeche","Nombre":"Candelaria","denominacion_oficial":"C04_estaciones_RFN25","modulo_asignado":"Mapa Base","instrumento_vigencia":"","fecha_actualizacion":"2026-07-29","fuente_custodio":"","responsable_institucional":"","proyeccion_original":"EPSG:6372","proyeccion_actual":"EPSG:4326","cobertura_territorial":"","restricciones_uso":""},"geometry":{"type":"Point","coordinates":[-91.044165,18.184461,0.0]}},{"type":"Feature","properties":{"IDOD":281,"TIPO_OD":"Estación de pasajeros","Jurisdicc":"Campeche","Nombre":"Escárcega","denominacion_oficial":"C04_estaciones_RFN25","modulo_asignado":"Mapa Base","instrumento_vigencia":"","fecha_actualizacion":"2026-07-29","fuente_custodio":"","responsable_institucional":"","proyeccion_original":"EPSG:6372","proyeccion_actual":"EPSG:4326","cobertura_territorial":"","restricciones_uso":""},"geometry":{"type":"Point","coordinates":[-90.731381,18.61274,0.0]}},{"type":"Feature","properties":{"IDOD":282,"TIPO_OD":"Estación de pasajeros","Jurisdicc":"Campeche","Nombre":"Carrillo Puerto","denominacion_oficial":"C04_estaciones_RFN25","modulo_asignado":"Mapa Base","instrumento_vigencia":"","fecha_actualizacion":"2026-07-29","fuente_custodio":"","responsable_institucional":"","proyeccion_original":"EPSG:6372","proyeccion_actual":"EPSG:4326","cobertura_territorial":"","restricciones_uso":""},"geometry":{"type":"Point","coordinates":[-90.523062,19.092673,0.0]}},{"type":"Feature","properties":{"IDOD":283,"TIPO_OD":"Estación de pasajeros","Jurisdicc":"Campeche","Nombre":"Edzná","denominacion_oficial":"C04_estaciones_RFN25","modulo_asignado":"Mapa Base","instrumento_vigencia":"","fecha_actualizacion":"2026-07-29","fuente_custodio":"","responsable_institucional":"","proyeccion_original":"EPSG:6372","proyeccion_actual":"EPSG:4326","cobertura_territorial":"","restricciones_uso":""},"geometry":{"type":"Point","coordinates":[-90.369827,19.592229,0.0]}},{"type":"Feature","properties":{"IDOD":284,"TIPO_OD":"Estación de pasajeros","Jurisdicc":"Campeche","Nombre":"San Francisco Campeche","denominacion_oficial":"C04_estaciones_RFN25","modulo_asignado":"Mapa Base","instrumento_vigencia":"","fecha_actualizacion":"2026-07-29","fuente_custodio":"","responsable_institucional":"","proyeccion_original":"EPSG:6372","proyeccion_actual":"EPSG:4326","cobertura_territorial":"","restricciones_uso":""},"geometry":{"type":"Point","coordinates":[-90.476805,19.822611,0.0]}},{"type":"Feature","properties":{"IDOD":285,"TIPO_OD":"Estación de pasajeros","Jurisdicc":"Campeche","Nombre":"Tenabo","denominacion_oficial":"C04_estaciones_RFN25","modulo_asignado":"Mapa Base","instrumento_vigencia":"","fecha_actualizacion":"2026-07-29","fuente_custodio":"","responsable_institucional":"","proyeccion_original":"EPSG:6372","proyeccion_actual":"EPSG:4326","cobertura_territorial":"","restricciones_uso":""},"geometry":{"type":"Point","coordinates":[-90.244324,20.039905,0.0]}},{"type":"Feature","properties":{"IDOD":286,"TIPO_OD":"Estación de pasajeros","Jurisdicc":"Campeche","Nombre":"Hecelchakán","denominacion_oficial":"C04_estaciones_RFN25","modulo_asignado":"Mapa Base","instrumento_vigencia":"","fecha_actualizacion":"2026-07-29","fuente_custodio":"","responsable_institucional":"","proyeccion_original":"EPSG:6372","proyeccion_actual":"EPSG:4326","cobertura_territorial":"","restricciones_uso":""},"geometry":{"type":"Point","coordinates":[-90.152242,20.174886,0.0]}},{"type":"Feature","properties":{"IDOD":287,"TIPO_OD":"Estación de pasajeros","Jurisdicc":"Campeche","Nombre":"Calkiní","denominacion_oficial":"C04_estaciones_RFN25","modulo_asignado":"Mapa Base","instrumento_vigencia":"","fecha_actualizacion":"2026-07-29","fuente_custodio":"","responsable_institucional":"","proyeccion_original":"EPSG:6372","proyeccion_actual":"EPSG:4326","cobertura_territorial":"","restricciones_uso":""},"geometry":{"type":"Point","coordinates":[-90.067871,20.377066,0.0]}},{"type":"Feature","properties":{"IDOD":288,"TIPO_OD":"Estación de pasajeros","Jurisdicc":"Campeche","Nombre":"Xpujil","denominacion_oficial":"C04_estaciones_RFN25","modulo_asignado":"Mapa Base","instrumento_vigencia":"","fecha_actualizacion":"2026-07-29","fuente_custodio":"","responsable_institucional":"","proyeccion_original":"EPSG:6372","proyeccion_actual":"EPSG:4326","cobertura_territorial":"","restricciones_uso":""},"geometry":{"type":"Point","coordinates":[-89.396365,18.526656,0.0]}},{"type":"Feature","properties":{"IDOD":289,"TIPO_OD":"Estación de pasajeros","Jurisdicc":"Campeche","Nombre":"Conhuás","denominacion_oficial":"C04_estaciones_RFN25","modulo_asignado":"Mapa Base","instrumento_vigencia":"","fecha_actualizacion":"2026-07-29","fuente_custodio":"","responsable_institucional":"","proyeccion_original":"EPSG:6372","proyeccion_actual":"EPSG:4326","cobertura_territorial":"","restricciones_uso":""},"geometry":{"type":"Point","coordinates":[-89.904438,18.531284,0.0]}},{"type":"Feature","properties":{"IDOD":290,"TIPO_OD":"Estación de pasajeros","Jurisdicc":"Campeche","Nombre":"Centenario","denominacion_oficial":"C04_estaciones_RFN25","modulo_asignado":"Mapa Base","instrumento_vigencia":"","fecha_actualizacion":"2026-07-29","fuente_custodio":"","responsable_institucional":"","proyeccion_original":"EPSG:6372","proyeccion_actual":"EPSG:4326","cobertura_territorial":"","restricciones_uso":""},"geometry":{"type":"Point","coordinates":[-90.28654,18.655876,0.0]}},{"type":"Feature","properties":{"IDOD":291,"TIPO_OD":"Estación de pasajeros","Jurisdicc":null,"Nombre":"Palenque","denominacion_oficial":"C04_estaciones_RFN25","modulo_asignado":"Mapa Base","instrumento_vigencia":"","fecha_actualizacion":"2026-07-29","fuente_custodio":"","responsable_institucional":"","proyeccion_original":"EPSG:6372","proyeccion_actual":"EPSG:4326","cobertura_territorial":"","restricciones_uso":""},"geometry":{"type":"Point","coordinates":[-91.979437,17.532997,0.0]}},{"type":"Feature","properties":{"IDOD":292,"TIPO_OD":"Estación de pasajeros","Jurisdicc":"Quintana Roo","Nombre":"Xcán","denominacion_oficial":"C04_estaciones_RFN25","modulo_asignado":"Mapa Base","instrumento_vigencia":"","fecha_actualizacion":"2026-07-29","fuente_custodio":"","responsable_institucional":"","proyeccion_original":"EPSG:6372","proyeccion_actual":"EPSG:4326","cobertura_territorial":"","restricciones_uso":""},"geometry":{"type":"Point","coordinates":[-87.602362,20.878975,0.0]}},{"type":"Feature","properties":{"IDOD":293,"TIPO_OD":"Estación de pasajeros","Jurisdicc":"Quintana Roo","Nombre":"Leona Vicario","denominacion_oficial":"C04_estaciones_RFN25","modulo_asignado":"Mapa Base","instrumento_vigencia":"","fecha_actualizacion":"2026-07-29","fuente_custodio":"","responsable_institucional":"","proyeccion_original":"EPSG:6372","proyeccion_actual":"EPSG:4326","cobertura_territorial":"","restricciones_uso":""},"geometry":{"type":"Point","coordinates":[-87.196819,20.979659,0.0]}},{"type":"Feature","properties":{"IDOD":294,"TIPO_OD":"Estación de pasajeros","Jurisdicc":"Quintana Roo","Nombre":"Cancún - Aeropuerto","denominacion_oficial":"C04_estaciones_RFN25","modulo_asignado":"Mapa Base","instrumento_vigencia":"","fecha_actualizacion":"2026-07-29","fuente_custodio":"","responsable_institucional":"","proyeccion_original":"EPSG:6372","proyeccion_actual":"EPSG:4326","cobertura_territorial":"","restricciones_uso":""},"geometry":{"type":"Point","coordinates":[-86.872802,21.02849,0.0]}},{"type":"Feature","properties":{"IDOD":295,"TIPO_OD":"Estación de pasajeros","Jurisdicc":"Quintana Roo","Nombre":"Puerto Morelos","denominacion_oficial":"C04_estaciones_RFN25","modulo_asignado":"Mapa Base","instrumento_vigencia":"","fecha_actualizacion":"2026-07-29","fuente_custodio":"","responsable_institucional":"","proyeccion_original":"EPSG:6372","proyeccion_actual":"EPSG:4326","cobertura_territorial":"","restricciones_uso":""},"geometry":{"type":"Point","coordinates":[-86.949958,20.850653,0.0]}},{"type":"Feature","properties":{"IDOD":296,"TIPO_OD":"Estación de pasajeros","Jurisdicc":"Quintana Roo","Nombre":"Playa del Carmen","denominacion_oficial":"C04_estaciones_RFN25","modulo_asignado":"Mapa Base","instrumento_vigencia":"","fecha_actualizacion":"2026-07-29","fuente_custodio":"","responsable_institucional":"","proyeccion_original":"EPSG:6372","proyeccion_actual":"EPSG:4326","cobertura_territorial":"","restricciones_uso":""},"geometry":{"type":"Point","coordinates":[-87.11712,20.67855,0.0]}},{"type":"Feature","properties":{"IDOD":297,"TIPO_OD":"Estación de pasajeros","Jurisdicc":"Quintana Roo","Nombre":"Tulum","denominacion_oficial":"C04_estaciones_RFN25","modulo_asignado":"Mapa Base","instrumento_vigencia":"","fecha_actualizacion":"2026-07-29","fuente_custodio":"","responsable_institucional":"","proyeccion_original":"EPSG:6372","proyeccion_actual":"EPSG:4326","cobertura_territorial":"","restricciones_uso":""},"geometry":{"type":"Point","coordinates":[-87.453647,20.246136,0.0]}},{"type":"Feature","properties":{"IDOD":298,"TIPO_OD":"Estación de pasajeros","Jurisdicc":"Quintana Roo","Nombre":"Tulum Aeropuerto","denominacion_oficial":"C04_estaciones_RFN25","modulo_asignado":"Mapa Base","instrumento_vigencia":"","fecha_actualizacion":"2026-07-29","fuente_custodio":"","responsable_institucional":"","proyeccion_original":"EPSG:6372","proyeccion_actual":"EPSG:4326","cobertura_territorial":"","restricciones_uso":""},"geometry":{"type":"Point","coordinates":[-87.639962,20.15177,0.0]}},{"type":"Feature","properties":{"IDOD":299,"TIPO_OD":"Estación de pasajeros","Jurisdicc":null,"Nombre":"Felipe Carrillo Puerto","denominacion_oficial":"C04_estaciones_RFN25","modulo_asignado":"Mapa Base","instrumento_vigencia":"","fecha_actualizacion":"2026-07-29","fuente_custodio":"","responsable_institucional":"","proyeccion_original":"EPSG:6372","proyeccion_actual":"EPSG:4326","cobertura_territorial":"","restricciones_uso":""},"geometry":{"type":"Point","coordinates":[-88.074557,19.592339,0.0]}},{"type":"Feature","properties":{"IDOD":300,"TIPO_OD":"Estación de pasajeros","Jurisdicc":"Quintana Roo","Nombre":"Limones","denominacion_oficial":"C04_estaciones_RFN25","modulo_asignado":"Mapa Base","instrumento_vigencia":"","fecha_actualizacion":"2026-07-29","fuente_custodio":"","responsable_institucional":"","proyeccion_original":"EPSG:6372","proyeccion_actual":"EPSG:4326","cobertura_territorial":"","restricciones_uso":""},"geometry":{"type":"Point","coordinates":[-88.118153,19.027648,0.0]}},{"type":"Feature","properties":{"IDOD":301,"TIPO_OD":"Estación de pasajeros","Jurisdicc":"Quintana Roo","Nombre":"Bacalar","denominacion_oficial":"C04_estaciones_RFN25","modulo_asignado":"Mapa Base","instrumento_vigencia":"","fecha_actualizacion":"2026-07-29","fuente_custodio":"","responsable_institucional":"","proyeccion_original":"EPSG:6372","proyeccion_actual":"EPSG:4326","cobertura_territorial":"","restricciones_uso":""},"geometry":{"type":"Point","coordinates":[-88.397191,18.70856,0.0]}},{"type":"Feature","properties":{"IDOD":302,"TIPO_OD":"Estación de pasajeros","Jurisdicc":null,"Nombre":"Chetumal","denominacion_oficial":"C04_estaciones_RFN25","modulo_asignado":"Mapa Base","instrumento_vigencia":"","fecha_actualizacion":"2026-07-29","fuente_custodio":"","responsable_institucional":"","proyeccion_original":"EPSG:6372","proyeccion_actual":"EPSG:4326","cobertura_territorial":"","restricciones_uso":""},"geometry":{"type":"Point","coordinates":[-88.322787,18.50829,0.0]}},{"type":"Feature","properties":{"IDOD":303,"TIPO_OD":"Estación de pasajeros","Jurisdicc":"Quintana Roo","Nombre":"Nicolas Bravo","denominacion_oficial":"C04_estaciones_RFN25","modulo_asignado":"Mapa Base","instrumento_vigencia":"","fecha_actualizacion":"2026-07-29","fuente_custodio":"","responsable_institucional":"","proyeccion_original":"EPSG:6372","proyeccion_actual":"EPSG:4326","cobertura_territorial":"","restricciones_uso":""},"geometry":{"type":"Point","coordinates":[-88.87933,18.453213,0.0]}},{"type":"Feature","properties":{"IDOD":305,"TIPO_OD":"Estación de pasajeros","Jurisdicc":"Tabasco","Nombre":"Boca del Cerro","denominacion_oficial":"C04_estaciones_RFN25","modulo_asignado":"Mapa Base","instrumento_vigencia":"","fecha_actualizacion":"2026-07-29","fuente_custodio":"","responsable_institucional":"","proyeccion_original":"EPSG:6372","proyeccion_actual":"EPSG:4326","cobertura_territorial":"","restricciones_uso":""},"geometry":{"type":"Point","coordinates":[-91.496498,17.43042,0.0]}},{"type":"Feature","properties":{"IDOD":306,"TIPO_OD":"Estación de pasajeros","Jurisdicc":"Tabasco","Nombre":"Tenosique","denominacion_oficial":"C04_estaciones_RFN25","modulo_asignado":"Mapa Base","instrumento_vigencia":"","fecha_actualizacion":"2026-07-29","fuente_custodio":"","responsable_institucional":"","proyeccion_original":"EPSG:6372","proyeccion_actual":"EPSG:4326","cobertura_territorial":"","restricciones_uso":""},"geometry":{"type":"Point","coordinates":[-91.430684,17.460438,0.0]}},{"type":"Feature","properties":{"IDOD":307,"TIPO_OD":"Estación de pasajeros","Jurisdicc":"Tabasco","Nombre":"El Triunfo","denominacion_oficial":"C04_estaciones_RFN25","modulo_asignado":"Mapa Base","instrumento_vigencia":"","fecha_actualizacion":"2026-07-29","fuente_custodio":"","responsable_institucional":"","proyeccion_original":"EPSG:6372","proyeccion_actual":"EPSG:4326","cobertura_territorial":"","restricciones_uso":""},"geometry":{"type":"Point","coordinates":[-91.171351,17.923189,0.0]}},{"type":"Feature","properties":{"IDOD":308,"TIPO_OD":"Estación de pasajeros","Jurisdicc":"Yucatan","Nombre":"Maxcanú","denominacion_oficial":"C04_estaciones_RFN25","modulo_asignado":"Mapa Base","instrumento_vigencia":"","fecha_actualizacion":"2026-07-29","fuente_custodio":"","responsable_institucional":"","proyeccion_original":"EPSG:6372","proyeccion_actual":"EPSG:4326","cobertura_territorial":"","restricciones_uso":""},"geometry":{"type":"Point","coordinates":[-89.975181,20.602912,0.0]}},{"type":"Feature","properties":{"IDOD":309,"TIPO_OD":"Estación de pasajeros","Jurisdicc":"Yucatan","Nombre":"Umán","denominacion_oficial":"C04_estaciones_RFN25","modulo_asignado":"Mapa Base","instrumento_vigencia":"","fecha_actualizacion":"2026-07-29","fuente_custodio":"","responsable_institucional":"","proyeccion_original":"EPSG:6372","proyeccion_actual":"EPSG:4326","cobertura_territorial":"","restricciones_uso":""},"geometry":{"type":"Point","coordinates":[-89.755768,20.848909,0.0]}},{"type":"Feature","properties":{"IDOD":310,"TIPO_OD":"Estación de pasajeros","Jurisdicc":"Yucatan","Nombre":"Teya - Merida","denominacion_oficial":"C04_estaciones_RFN25","modulo_asignado":"Mapa Base","instrumento_vigencia":"","fecha_actualizacion":"2026-07-29","fuente_custodio":"","responsable_institucional":"","proyeccion_original":"EPSG:6372","proyeccion_actual":"EPSG:4326","cobertura_territorial":"","restricciones_uso":""},"geometry":{"type":"Point","coordinates":[-89.514749,20.929144,0.0]}},{"type":"Feature","properties":{"IDOD":311,"TIPO_OD":"Estación de pasajeros","Jurisdicc":"Yucatan","Nombre":"Tixkokob","denominacion_oficial":"C04_estaciones_RFN25","modulo_asignado":"Mapa Base","instrumento_vigencia":"","fecha_actualizacion":"2026-07-29","fuente_custodio":"","responsable_institucional":"","proyeccion_original":"EPSG:6372","proyeccion_actual":"EPSG:4326","cobertura_territorial":"","restricciones_uso":""},"geometry":{"type":"Point","coordinates":[-89.39931,20.987378,0.0]}},{"type":"Feature","properties":{"IDOD":312,"TIPO_OD":"Estación de pasajeros","Jurisdicc":"Yucatan","Nombre":"Izamal","denominacion_oficial":"C04_estaciones_RFN25","modulo_asignado":"Mapa Base","instrumento_vigencia":"","fecha_actualizacion":"2026-07-29","fuente_custodio":"","responsable_institucional":"","proyeccion_original":"EPSG:6372","proyeccion_actual":"EPSG:4326","cobertura_territorial":"","restricciones_uso":""},"geometry":{"type":"Point","coordinates":[-89.085477,20.936214,0.0]}},{"type":"Feature","properties":{"IDOD":313,"TIPO_OD":"Estación de pasajeros","Jurisdicc":"Yucatan","Nombre":"Chichen Itzá","denominacion_oficial":"C04_estaciones_RFN25","modulo_asignado":"Mapa Base","instrumento_vigencia":"","fecha_actualizacion":"2026-07-29","fuente_custodio":"","responsable_institucional":"","proyeccion_original":"EPSG:6372","proyeccion_actual":"EPSG:4326","cobertura_territorial":"","restricciones_uso":""},"geometry":{"type":"Point","coordinates":[-88.548983,20.720133,0.0]}},{"type":"Feature","properties":{"IDOD":314,"TIPO_OD":"Estación de pasajeros","Jurisdicc":"Yucatan","Nombre":"Valladolid","denominacion_oficial":"C04_estaciones_RFN25","modulo_asignado":"Mapa Base","instrumento_vigencia":"","fecha_actualizacion":"2026-07-29","fuente_custodio":"","responsable_institucional":"","proyeccion_original":"EPSG:6372","proyeccion_actual":"EPSG:4326","cobertura_territorial":"","restricciones_uso":""},"geometry":{"type":"Point","coordinates":[-88.193248,20.740142,0.0]}},{"type":"Feature","properties":{"IDOD":58,"TIPO_OD":"Terminal de carga","Jurisdicc":"Veracruz","Nombre":null,"denominacion_oficial":"C04_estaciones_RFN25","modulo_asignado":"Mapa Base","instrumento_vigencia":"","fecha_actualizacion":"2026-07-29","fuente_custodio":"","responsable_institucional":"","proyeccion_original":"EPSG:6372","proyeccion_actual":"EPSG:4326","cobertura_territorial":"","restricciones_uso":""},"geometry":{"type":"Point","coordinates":[-94.565739,18.099652,0.0]}},{"type":"Feature","properties":{"IDOD":106,"TIPO_OD":"Puerto Ferroviario Fronterizo","Jurisdicc":"Chiapas","Nombre":null,"denominacion_oficial":"C04_estaciones_RFN25","modulo_asignado":"Mapa Base","instrumento_vigencia":"","fecha_actualizacion":"2026-07-29","fuente_custodio":"","responsable_institucional":"","proyeccion_original":"EPSG:6372","proyeccion_actual":"EPSG:4326","cobertura_territorial":"","restricciones_uso":""},"geometry":{"type":"Point","coordinates":[-92.147108,14.676362,0.0]}},{"type":"Feature","properties":{"IDOD":108,"TIPO_OD":"Puerto Ferroviario Marítimo","Jurisdicc":"Veracruz","Nombre":null,"denominacion_oficial":"C04_estaciones_RFN25","modulo_asignado":"Mapa Base","instrumento_vigencia":"","fecha_actualizacion":"2026-07-29","fuente_custodio":"","responsable_institucional":"","proyeccion_original":"EPSG:6372","proyeccion_actual":"EPSG:4326","cobertura_territorial":"","restricciones_uso":""},"geometry":{"type":"Point","coordinates":[-94.427836,18.122748,0.0]}},{"type":"Feature","properties":{"IDOD":109,"TIPO_OD":"Puerto Ferroviario Marítimo","Jurisdicc":"Oaxaca","Nombre":null,"denominacion_oficial":"C04_estaciones_RFN25","modulo_asignado":"Mapa Base","instrumento_vigencia":"","fecha_actualizacion":"2026-07-29","fuente_custodio":"","responsable_institucional":"","proyeccion_original":"EPSG:6372","proyeccion_actual":"EPSG:4326","cobertura_territorial":"","restricciones_uso":""},"geometry":{"type":"Point","coordinates":[-95.181867,16.169678,0.0]}},{"type":"Feature","properties":{"IDOD":148,"TIPO_OD":"Patio","Jurisdicc":"Veracruz","Nombre":null,"denominacion_oficial":"C04_estaciones_RFN25","modulo_asignado":"Mapa Base","instrumento_vigencia":"","fecha_actualizacion":"2026-07-29","fuente_custodio":"","responsable_institucional":"","proyeccion_original":"EPSG:6372","proyeccion_actual":"EPSG:4326","cobertura_territorial":"","restricciones_uso":""},"geometry":{"type":"Point","coordinates":[-95.029812,17.670329,0.0]}},{"type":"Feature","properties":{"IDOD":152,"TIPO_OD":"Patio","Jurisdicc":"Veracruz","Nombre":null,"denominacion_oficial":"C04_estaciones_RFN25","modulo_asignado":"Mapa Base","instrumento_vigencia":"","fecha_actualizacion":"2026-07-29","fuente_custodio":"","responsable_institucional":"","proyeccion_original":"EPSG:6372","proyeccion_actual":"EPSG:4326","cobertura_territorial":"","restricciones_uso":""},"geometry":{"type":"Point","coordinates":[-94.450077,18.126616,0.0]}},{"type":"Feature","properties":{"IDOD":179,"TIPO_OD":"Patio","Jurisdicc":"Yucatan","Nombre":null,"denominacion_oficial":"C04_estaciones_RFN25","modulo_asignado":"Mapa Base","instrumento_vigencia":"","fecha_actualizacion":"2026-07-29","fuente_custodio":"","responsable_institucional":"","proyeccion_original":"EPSG:6372","proyeccion_actual":"EPSG:4326","cobertura_territorial":"","restricciones_uso":""},"geometry":{"type":"Point","coordinates":[-89.612981,20.97314,0.0]}},{"type":"Feature","properties":{"IDOD":180,"TIPO_OD":"Patio","Jurisdicc":"Chiapas","Nombre":null,"denominacion_oficial":"C04_estaciones_RFN25","modulo_asignado":"Mapa Base","instrumento_vigencia":"","fecha_actualizacion":"2026-07-29","fuente_custodio":"","responsable_institucional":"","proyeccion_original":"EPSG:6372","proyeccion_actual":"EPSG:4326","cobertura_territorial":"","restricciones_uso":""},"geometry":{"type":"Point","coordinates":[-93.898627,16.234116,0.0]}},{"type":"Feature","properties":{"IDOD":181,"TIPO_OD":"Patio","Jurisdicc":"Chiapas","Nombre":null,"denominacion_oficial":"C04_estaciones_RFN25","modulo_asignado":"Mapa Base","instrumento_vigencia":"","fecha_actualizacion":"2026-07-29","fuente_custodio":"","responsable_institucional":"","proyeccion_original":"EPSG:6372","proyeccion_actual":"EPSG:4326","cobertura_territorial":"","restricciones_uso":""},"geometry":{"type":"Point","coordinates":[-92.153775,14.677714,0.0]}},{"type":"Feature","properties":{"IDOD":182,"TIPO_OD":"Patio","Jurisdicc":"Tabasco","Nombre":null,"denominacion_oficial":"C04_estaciones_RFN25","modulo_asignado":"Mapa Base","instrumento_vigencia":"","fecha_actualizacion":"2026-07-29","fuente_custodio":"","responsable_institucional":"","proyeccion_original":"EPSG:6372","proyeccion_actual":"EPSG:4326","cobertura_territorial":"","restricciones_uso":""},"geometry":{"type":"Point","coordinates":[-93.473608,17.665939,0.0]}},{"type":"Feature","properties":{"IDOD":183,"TIPO_OD":"Patio","Jurisdicc":"Campeche","Nombre":null,"denominacion_oficial":"C04_estaciones_RFN25","modulo_asignado":"Mapa Base","instrumento_vigencia":"","fecha_actualizacion":"2026-07-29","fuente_custodio":"","responsable_institucional":"","proyeccion_original":"EPSG:6372","proyeccion_actual":"EPSG:4326","cobertura_territorial":"","restricciones_uso":""},"geometry":{"type":"Point","coordinates":[-90.511694,19.832725,0.0]}},{"type":"Feature","properties":{"IDOD":184,"TIPO_OD":"Patio","Jurisdicc":null,"Nombre":null,"denominacion_oficial":"C04_estaciones_RFN25","modulo_asignado":"Mapa Base","instrumento_vigencia":"","fecha_actualizacion":"2026-07-29","fuente_custodio":"","responsable_institucional":"","proyeccion_original":"EPSG:6372","proyeccion_actual":"EPSG:4326","cobertura_territorial":"","restricciones_uso":""},"geometry":{"type":"Point","coordinates":[-91.987482,17.543674,0.0]}},{"type":"Feature","properties":{"IDOD":185,"TIPO_OD":"Patio","Jurisdicc":"Oaxaca","Nombre":null,"denominacion_oficial":"C04_estaciones_RFN25","modulo_asignado":"Mapa Base","instrumento_vigencia":"","fecha_actualizacion":"2026-07-29","fuente_custodio":"","responsable_institucional":"","proyeccion_original":"EPSG:6372","proyeccion_actual":"EPSG:4326","cobertura_territorial":"","restricciones_uso":""},"geometry":{"type":"Point","coordinates":[-95.099348,16.550703,0.0]}},{"type":"Feature","properties":{"IDOD":186,"TIPO_OD":"Patio","Jurisdicc":"Oaxaca","Nombre":null,"denominacion_oficial":"C04_estaciones_RFN25","modulo_asignado":"Mapa Base","instrumento_vigencia":"","fecha_actualizacion":"2026-07-29","fuente_custodio":"","responsable_institucional":"","proyeccion_original":"EPSG:6372","proyeccion_actual":"EPSG:4326","cobertura_territorial":"","restricciones_uso":""},"geometry":{"type":"Point","coordinates":[-95.042649,16.879899,0.0]}},{"type":"Feature","properties":{"IDOD":188,"TIPO_OD":"Patio","Jurisdicc":"Veracruz","Nombre":null,"denominacion_oficial":"C04_estaciones_RFN25","modulo_asignado":"Mapa Base","instrumento_vigencia":"","fecha_actualizacion":"2026-07-29","fuente_custodio":"","responsable_institucional":"","proyeccion_original":"EPSG:6372","proyeccion_actual":"EPSG:4326","cobertura_territorial":"","restricciones_uso":""},"geometry":{"type":"Point","coordinates":[-94.351942,18.045704,0.0]}},{"type":"Feature","properties":{"IDOD":226,"TIPO_OD":"Patio","Jurisdicc":"Veracruz","Nombre":null,"denominacion_oficial":"C04_estaciones_RFN25","modulo_asignado":"Mapa Base","instrumento_vigencia":"","fecha_actualizacion":"2026-07-29","fuente_custodio":"","responsable_institucional":"","proyeccion_original":"EPSG:6372","proyeccion_actual":"EPSG:4326","cobertura_territorial":"","restricciones_uso":""},"geometry":{"type":"Point","coordinates":[-94.620108,18.037634,0.0]}},{"type":"Feature","properties":{"IDOD":239,"TIPO_OD":"Patio","Jurisdicc":"Oaxaca","Nombre":null,"denominacion_oficial":"C04_estaciones_RFN25","modulo_asignado":"Mapa Base","instrumento_vigencia":"","fecha_actualizacion":"2026-07-29","fuente_custodio":"","responsable_institucional":"","proyeccion_original":"EPSG:6372","proyeccion_actual":"EPSG:4326","cobertura_territorial":"","restricciones_uso":""},"geometry":{"type":"Point","coordinates":[-95.183657,16.170376,0.0]}},{"type":"Feature","properties":{"IDOD":240,"TIPO_OD":"Patio","Jurisdicc":"Tabasco","Nombre":null,"denominacion_oficial":"C04_estaciones_RFN25","modulo_asignado":"Mapa Base","instrumento_vigencia":"","fecha_actualizacion":"2026-07-29","fuente_custodio":"","responsable_institucional":"","proyeccion_original":"EPSG:6372","proyeccion_actual":"EPSG:4326","cobertura_territorial":"","restricciones_uso":""},"geometry":{"type":"Point","coordinates":[-92.947365,17.565209,0.0]}},{"type":"Feature","properties":{"IDOD":241,"TIPO_OD":"Patio","Jurisdicc":"Chiapas","Nombre":null,"denominacion_oficial":"C04_estaciones_RFN25","modulo_asignado":"Mapa Base","instrumento_vigencia":"","fecha_actualizacion":"2026-07-29","fuente_custodio":"","responsable_institucional":"","proyeccion_original":"EPSG:6372","proyeccion_actual":"EPSG:4326","cobertura_territorial":"","restricciones_uso":""},"geometry":{"type":"Point","coordinates":[-92.902645,15.434439,0.0]}},{"type":"Feature","properties":{"IDOD":242,"TIPO_OD":"Patio","Jurisdicc":"Chiapas","Nombre":null,"denominacion_oficial":"C04_estaciones_RFN25","modulo_asignado":"Mapa Base","instrumento_vigencia":"","fecha_actualizacion":"2026-07-29","fuente_custodio":"","responsable_institucional":"","proyeccion_original":"EPSG:6372","proyeccion_actual":"EPSG:4326","cobertura_territorial":"","restricciones_uso":""},"geometry":{"type":"Point","coordinates":[-93.75905,16.087043,0.0]}}]}